facility_name,facility_type,address,lat,long
CHEN FAMILY CLINIC,CHAS Clinic,153 SERANGOON NORTH AVE 1 550153,1.36995099695439,103.872312298307
CHENG CLINIC,CHAS Clinic,447 ANG MO KIO AVE 10 560447,1.36747901395741,103.855967138976
CHEONG FAMILY CLINIC PTE LTD,CHAS Clinic,45 OWEN RD 210045,1.31559567557441,103.850825476113
CHEONG MEDICAL CLINIC,CHAS Clinic,76 JLN JURONG KECHIL 598589,1.34054866770426,103.77332960556
CHERN MEDICAL CLINIC,CHAS Clinic,138 TAMPINES ST 11 521138,1.34550450587014,103.945588355489
CHESTMED pte ltd,CHAS Clinic,3 Mount Elizabeth 228510,1.30516521414744,103.83543933754
CHIA & LEE MEDICAL & DENTAL CLINIC,CHAS Clinic,802 TAMPINES AVE 4 520802,1.34608442387087,103.93803402297
CHIA CLINIC AND SURGERY,CHAS Clinic,27 FOCH ROAD 209264,1.31270180835768,103.859968796046
CHIEW CLINIC,CHAS Clinic,2 KOVAN ROAD 548008,1.36197602911345,103.88499280169
CHIN CHOO CLINIC,CHAS Clinic,35 CIRCUIT ROAD 370035,1.32915899651205,103.886010316195
CHIN LEONG CLINIC,CHAS Clinic,517 WEST COAST ROAD 120517,1.30747684403086,103.7601572777
CHINATOWN WELLNESS CLINIC,CHAS Clinic,531 UPPER CROSS STREET 050531,1.28439238197795,103.846101472114
CHIRON MEDICAL CLINIC,CHAS Clinic,3 ST. GEORGE'S ROAD 320003,1.32258735163112,103.861107276896
CHNG CLINIC AND SURGERY,CHAS Clinic,178 TOA PAYOH CENTRAL 310178,1.33358025833851,103.849264521174
CHONG & LIM FAMILY CLINIC,CHAS Clinic,103 GANGSA ROAD 670103,1.37867070866309,103.768538441068
CHONG MEDICAL CLINIC,CHAS Clinic,703 BEDOK RESERVOIR ROAD 470703,1.33716507465033,103.91989305506
CHONG'S MEDICAL CENTRE,CHAS Clinic,190 CLEMENCEAU AVE 239924,1.29815265418204,103.844111318068
CHOONG'S CLINIC,CHAS Clinic,480 TAMPINES ST 44 520480,1.36189869571333,103.953613062624
CHOONG'S CLINIC,CHAS Clinic,21 OLD AIRPORT RD 390021,1.3075861395776,103.88441304265
CHUA CLINIC,CHAS Clinic,678 HOUGANG AVE 8 530678,1.37084076367772,103.884236382226
CHUA CLINIC & SURGERY,CHAS Clinic,769 YISHUN AVE 3 760769,1.42460205341205,103.83322239147
CHUA CLINIC & SURGERY,CHAS Clinic,844 YISHUN ST 81 760844,1.41562517359593,103.835446503405
CHUA MEDICO CLINIC LLP,CHAS Clinic,529 ANG MO KIO AVE 10 560529,1.37234358213412,103.85545542764
CHUAH CLINIC & SURGERY PTE LTD,CHAS Clinic,113 ALJUNIED AVE 2 380113,1.32052595944466,103.886159306963
CHUNGKIAW CLINIC PTE LTD,CHAS Clinic,68 JALAN JURONG KECHIL 596180,1.34054847931538,103.773649129579
CITILIFE FAMILY CLINIC,CHAS Clinic,215 JURONG EAST ST 21 600215,1.33993327230313,103.738514477814
CITIZEN FAMILY CLINIC AND SURGERY,CHAS Clinic,102 YISHUN AVE 5 760102,1.43061830395979,103.828762985206
CLARION MEDICAL,CHAS Clinic,202 ANG MO KIO AVENUE 3 560202,1.36844644023912,103.844516260553
DA Clinic @ Bishan,CHAS Clinic,501 BISHAN STREET 11 570501,1.34841689766538,103.84907733333
1 Medical Teck Ghee,CHAS Clinic,410 ANG MO KIO AVENUE 10 560410,1.36271541943285,103.854644986918
115 EASTPOINT CLINIC & SURGERY,CHAS Clinic,115 BEDOK NORTH RD 460115,1.33143367986449,103.936865404289
18 CLINIC,CHAS Clinic,101 TOWNER ROAD 322101,1.31942539044681,103.861087462865
"1Aesthetics, Medical & Surgery",CHAS Clinic,8 EU TONG SEN STREET 059818,1.28895619965092,103.84679624319
338 FAMILY CLINIC,CHAS Clinic,338 ANG MO KIO AVE 1 560338,1.3638957019431,103.848986957423
57 Medical Clinic (Geylang Bahru),CHAS Clinic,57 GEYLANG BAHRU 330057,1.3235378064709,103.869147756879
81 FAMILY CLINIC,CHAS Clinic,86 MARINE PARADE CENTRAL 440086,1.30173721640039,103.906754510622
888 PLAZA FAMILY CLINIC,CHAS Clinic,888 WOODLANDS DRIVE 50 730888,1.43712301469225,103.79531438351
A & A Clinic,CHAS Clinic,570B WOODLANDS AVENUE 1 732570,1.43106395467045,103.79045407864
A LIFE CLINIC PTE LTD,CHAS Clinic,10 SINARAN DRIVE 307506,1.3207051098625,103.844160709873
A MEDICAL CLINIC,CHAS Clinic,1 EVERTON PARK 081001,1.27742654256439,103.840001188467
A+FFORDABLE CLINIC (AMK AVE 10),CHAS Clinic,449 ANG MO KIO AVENUE 10 560449,1.36785888235033,103.856047008296
A+FFORDABLE CLINIC (HOUGANG),CHAS Clinic,681 HOUGANG AVENUE 8 530681,1.37297840263115,103.885679159796
A1 Medical Clinic,CHAS Clinic,418 BEDOK NORTH AVENUE 2 460418,1.32856421162809,103.930036524412
ABLE MEDICAL,CHAS Clinic,201D TAMPINES STREET 21 524201,1.35226231434834,103.953586491461
ACMS MEDICAL CLINIC,CHAS Clinic,1 GRANGE ROAD 239693,1.30139878843175,103.837359153263
ACUMED MEDICAL GROUP,CHAS Clinic,16 COLLYER QUAY 049318,1.28418785545188,103.852547365584
ACUMED MEDICAL GROUP,CHAS Clinic,1 JURONG WEST CENTRAL 2 648886,1.33945271688955,103.706685012636
ACUMED MEDICAL GROUP,CHAS Clinic,38 TEBAN GARDENS ROAD 600038,1.32113896653504,103.742787643586
ACUMED MEDICAL GROUP,CHAS Clinic,111 WOODLANDS STREET 13 730111,1.43794381737826,103.782059433299
ACUMED MEDICAL GROUP,CHAS Clinic,64 YUNG KUANG ROAD 610064,1.33237347600046,103.722451247982
ACUMED MEDICAL GROUP,CHAS Clinic,71 PIONEER ROAD 639591,1.31715448633568,103.652226413178
ACUMED MEDICAL GROUP,CHAS Clinic,14 TUAS AVENUE 1 639499,1.32148166492796,103.66095280564
ADIDAH FAMILY CLINIC & SURGERY,CHAS Clinic,821 TAMPINES ST 81 520821,1.34841976695403,103.934649103244
ADMIRALTY FAMILY MEDICAL CLINIC,CHAS Clinic,693 WOODLANDS AVENUE 6 730693,1.43808788035983,103.80376495913
ADVANCE CLINIC & SURGERY PTE LTD,CHAS Clinic,301 UBI AVE 1 400301,1.33068802483318,103.901953041118
AE Medical Clinic,CHAS Clinic,467B FERNVALE LINK 792467,1.39807105477126,103.877933381804
AIDAN MEDICAL CLINIC,CHAS Clinic,539 BEDOK NORTH STREET 3 460539,1.33131386611754,103.925307290309
ALEXANDRA FAMILY CLINIC & SURGERY,CHAS Clinic,57 DAWSON ROAD 142057,1.29270339832463,103.810958956801
ALLIANCE CLINIC AND PARTNERS PTE LTD,CHAS Clinic,652 JALAN TENAGA 410652,1.33269651937702,103.907742997146
AMDA International Peace Clinic,CHAS Clinic,9 TAMAN SERASI 257720,1.30847204130269,103.819135632329
AMITY MEDICAL CLINIC & DENTAL SURGERY,CHAS Clinic,371 BT BATOK ST 31 650371,1.35925940880518,103.75069463099
AMK FAMILY CLINIC PTE LTD,CHAS Clinic,51 ANG MO KIO AVE 3 569922,1.36929729659109,103.847159445411
AMPM FAMILY CLINIC & SURGERY PTE. LTD.,CHAS Clinic,123 TOA PAYOH LOR 1 310123,1.33864901778038,103.845703844549
ANG MO KIO MEDICAL CENTRE,CHAS Clinic,157 ANG MO KIO AVE 4 560157,1.37530562129984,103.839395071325
ANSARI FAMILY CLINIC & SURGERY,CHAS Clinic,78 LORONG  25A GEYLANG ROAD 388259,1.31592240672591,103.883338697356
APEX CLINIC & SURGERY,CHAS Clinic,844 YISHUN ST 81 760844,1.41562517359593,103.835446503405
APEX CLINIC & SURGERY,CHAS Clinic,306 WOODLANDS ST 31 730306,1.42992991950792,103.774636554647
APEX MEDICAL CENTRE (JURONG) PTE LTD,CHAS Clinic,960 JURONG WEST ST 92 640960,1.34138531152671,103.691459639169
AR-Raudhah Medical Clinic and Surgery Pte Ltd,CHAS Clinic,372 BUKIT BATOK STREET 31 650372,1.35866916669751,103.751213742333
ARCADIA CLINIC,CHAS Clinic,2 PANDAN VALLEY 597626,1.32044171174532,103.778972458718
ASIAMEDIC WELLNESS ASSESSMENT CENTRE,CHAS Clinic,350 ORCHARD ROAD 238868,1.30580981572661,103.831507365278
ASPEN CLINIC,CHAS Clinic,283 BISHAN STREET 22 570283,1.35891907140489,103.844748631654
ASSOCIATE DISPENSARIES,CHAS Clinic,94 TOA PAYOH LOR 4 310094,1.33889442806175,103.849538318462
ASSURANCE MEDICARE CLINIC AND SURGERY,CHAS Clinic,370 TANJONG KATONG ROAD 437127,1.30288819409101,103.896729088429
ATLAS PACIFIC MEDICAL,CHAS Clinic,428 RIVER VALLEY ROAD 248327,1.29446098576164,103.827620903348
ATRIO FAMILY CLINIC (AMK) PTE. LTD.,CHAS Clinic,532 ANG MO KIO AVENUE 10 560532,1.37380851529933,103.854594160953
Acacia Medical Clinic,CHAS Clinic,180 DEPOT ROAD 109684,1.28220135432784,103.803023755955
AcuMed Medical Group,CHAS Clinic,301 BOON LAY WAY 649846,1.33845148863534,103.70592708661
AcuMed Medical Group,CHAS Clinic,214 Bedok North Street 1 460214,1.32587565153874,103.932493034946
AcuMed Medical Group,CHAS Clinic,215C COMPASSVALE DRIVE 543215,1.38977026270373,103.892787161386
Acumed Medical Group,CHAS Clinic,1 JOO KOON CIRCLE 629117,1.32561767794228,103.678409741881
Acumed Medical Group,CHAS Clinic,128 TUAS SOUTH AVENUE 3 637370,1.28909462597839,103.626524577792
Affinity Medical Clinic,CHAS Clinic,253 SERANGOON CENTRAL DRIVE 550253,1.35403939788243,103.870851534198
"Allergy, Arthritis & Rheumatism Clinic",CHAS Clinic,1 FARRER PARK STATION ROAD 217562,1.31247324146379,103.853929522028
Allhealth Family Clinic,CHAS Clinic,872C TAMPINES STREET 86 523872,1.35524290247104,103.931623628634
Ally Health,CHAS Clinic,46-2 COMMONWEALTH DRIVE 140462,1.29996199426431,103.798227586733
Ang Mo Kio Family Medicine Clinic,CHAS Clinic,4190 ANG MO KIO AVENUE 6 569841,1.37193728999032,103.845949440183
Anteh Dispensary Pte Ltd,CHAS Clinic,1 LORONG 22 GEYLANG 398664,1.31277604579897,103.882455638548
Apollo Medical Centre,CHAS Clinic,668 CHANDER ROAD 210668,1.30758123998287,103.851478219833
Asia HealthPartners,CHAS Clinic,304 ORCHARD ROAD 238863,1.30450610034739,103.833961913411
Atrio Family Clinic,CHAS Clinic,291 YISHUN STREET 22 760291,1.43576080433402,103.836723874387
B S CHEW CLINIC,CHAS Clinic,252 JURONG EAST ST 24 600252,1.34302644245795,103.738145286322
B T GOH FAMILY CLINIC & SURGERY,CHAS Clinic,194 KIM KEAT AVE 310194,1.33093933661869,103.858181908966
BALKIS FAMILY CLINIC,CHAS Clinic,631 BEDOK RESERVOIR RD 470631,1.33295923548327,103.914941831149
BEDOK  CENTRAL CLINIC,CHAS Clinic,214 BEDOK NORTH STREET 1 460214,1.32587565153874,103.932493034946
BEDOK CLINIC & SURGERY(Family Medical Centre),CHAS Clinic,17 BEDOK SOUTH RD 460017,1.32014882956642,103.935563486314
BEDOK LIFE CLINIC,CHAS Clinic,123 BEDOK NORTH ST 2 460123,1.32919868633173,103.937343348132
BEDOK MEDICAL CENTRE,CHAS Clinic,18 BEDOK SOUTH RD 460018,1.3206250489608,103.934734222327
BISHAN GRACE CLINIC,CHAS Clinic,150 BISHAN STREET 11 570150,1.34452706925104,103.855213610026
BL MEDICAL ASSOCIATES,CHAS Clinic,2 SCIENCE PARK DRIVE 118222,1.29076149231466,103.784855036241
BOK FAMILY CLINIC  PTE LTD,CHAS Clinic,117 BEDOK RESERVOIR ROAD 470117,1.33141324887407,103.908688936297
BOON KENG CLINIC & SURGERY,CHAS Clinic,11 UPPER BOON KENG RD 380011,1.31423937057055,103.870914031071
BOON LAY CENTRAL CLINIC,CHAS Clinic,221 BOON LAY PLACE 640221,1.3463481965558,103.712429315355
BOON LAY CLINIC & SURGERY,CHAS Clinic,221 BOON LAY PLACE 640221,1.3463481965558,103.712429315355
BOON LAY CORPORATION CLINIC,CHAS Clinic,350 JURONG EAST AVENUE 1 600350,1.34404941870857,103.731255559658
BOSTON MEDICAL,CHAS Clinic,119 ALJUNIED AVENUE 2 380119,1.32012887334325,103.886058091098
BUKIT BATOK MEDICAL CLINIC,CHAS Clinic,207 BUKIT BATOK ST 21 650207,1.3462486617594,103.749382188619
BUKIT TIMAH CLINIC,CHAS Clinic,621A BUKIT TIMAH ROAD 269731,1.3245755173538,103.809058595403
BUKIT TIMAH NAM SANG  CLINIC,CHAS Clinic,80 JLN JURONG KECHIL 598591,1.34055525010784,103.773237589356
Banyan Clinic Pte Ltd.,CHAS Clinic,768 Woodlands Avenue 6 730768,1.44562290748789,103.798140993881
Beo Crescent Clinic & Surgery,CHAS Clinic,40 Beo Crescent 160040,1.28905789113721,103.827513018591
Bethesda Medical Centre,CHAS Clinic,3 TEMASEK BOULEVARD 038983,1.29593189474123,103.859014406987
Bless Medical Centre Pte Ltd,CHAS Clinic,221 BOON LAY PLACE 640221,1.3463481965558,103.712429315355
Braddell Family Clinic,CHAS Clinic,124 LORONG 1 TOA PAYOH 310124,1.33864876707252,103.844627301844
C & K FAMILY CLINIC PTE LTD,CHAS Clinic,108 UPPER EAST COAST ROAD 455297,1.31316934216382,103.92930519829
C H TAN MEDICAL CLINIC & DENTAL SURGERY,CHAS Clinic,177 BT BATOK WEST AVE 8 650177,1.34634407478636,103.741742087355
C K TAN FAMILY CLINIC & SURGERY PTE LTD,CHAS Clinic,125 TOA PAYOH LOR 1 310125,1.33833133425818,103.845737117486
C Y KOK CLINIC & SURGERY,CHAS Clinic,157 ANG MO KIO AVE 4 560157,1.37530562129984,103.839395071325
C.M.C. WONG BINJAI CLINIC,CHAS Clinic,15 BINJAI PARK 589824,1.33622384171884,103.786854059334
C3 Family Clinic @Aljunied Crescent,CHAS Clinic,95 ALJUNIED CRESCENT 380095,1.32170328990751,103.886195689055
CARE MEDICAL PTE LTD,CHAS Clinic,683 HOUGANG AVE 8 530683,1.37331270083797,103.886367847372
CARITAS CLINIC,CHAS Clinic,304 UBI AVE 1 400304,1.32955256814021,103.901228610039
CASHEW MEDICAL & SURGERY,CHAS Clinic,445 FAJAR RD 670445,1.38358044593591,103.77076830515
CASSIA CLINIC & SURGERY,CHAS Clinic,34 CASSIA CRESCENT 390034,1.30964078460585,103.884471780069
CCK FAMILY CLINIC,CHAS Clinic,304 CHOA CHU KANG AVE 4 680304,1.38449608058333,103.743145847094
CECILIA FAMILY CLINIC & SURGERY,CHAS Clinic,484 TAMPINES ST 43 520484,1.36189785903603,103.952639447158
CENTRAL 24-HR CLINIC (BEDOK),CHAS Clinic,219 BEDOK CENTRAL 460219,1.32496457671995,103.932948087726
CENTRAL 24-HR CLINIC (CLEMENTI),CHAS Clinic,450 Clementi Ave 3 120450,1.31353886094619,103.765476305113
CENTRAL 24-HR CLINIC (HOUGANG),CHAS Clinic,681 HOUGANG AVE 8 530681,1.37297840263115,103.885679159796
CENTRAL 24-HR CLINIC (MARSILING),CHAS Clinic,303 WOODLANDS STREET 31 730303,1.43079961597954,103.774011078502
CENTRAL 24-HR CLINIC (PASIR RIS),CHAS Clinic,446 PASIR RIS DRIVE 6 510446,1.37030619330386,103.957726864829
CENTRAL 24-HR CLINIC (TAMPINES),CHAS Clinic,201D TAMPINES STREET 21 524201,1.35226231434834,103.953586491461
CENTRAL 24-HR CLINIC (WOODLANDS),CHAS Clinic,768 WOODLANDS AVENUE 6 730768,1.44562290748789,103.798140993881
CENTRAL 24-HR CLINIC (YISHUN),CHAS Clinic,701A YISHUN AVE 5 761701,1.4298784547931,103.827943218947
CENTRAL MEDICAL GROUP PTE LTD,CHAS Clinic,11 JALAN BUKIT MERAH 150011,1.28662190371744,103.808963346658
CHAI CHEE CLINIC & SURGERY,CHAS Clinic,25A CHAI CHEE RD 461025,1.32328959901597,103.924149637094
CHAN FAMILY CLINIC,CHAS Clinic,865 MOUNTBATTEN ROAD 437844,1.30409731167599,103.901515916912
CHANG CLINIC,CHAS Clinic,1 JLN ANAK BUKIT 588996,1.3387593077272,103.77860007818
CHANG CLINIC & SURGERY,CHAS Clinic,7 EVERTON PARK 080007,1.27692435181046,103.838679504053
CHARIS CLINIC & SURGERY,CHAS Clinic,164 TAMPINES ST 12 521164,1.3496215147162,103.9460006915
GOH CLINIC + SURGERY,CHAS Clinic,283 BT BATOK EAST AVE 3 650283,1.34694365739119,103.757539380941
GOODDOCTORS MEDICAL CLINIC,CHAS Clinic,18 YISHUN AVENUE 9 768897,1.43312284024159,103.841660985807
GRACE CLINIC & SURGERY,CHAS Clinic,607 ANG MO KIO AVE 4 560607,1.38046758627437,103.838816721495
GREAT HEALTH MEDICAL CLINIC,CHAS Clinic,407 ANG MO KIO AVENUE 10 560407,1.36191347168144,103.855247666969
GREEN CROSS MEDICAL CENTRE,CHAS Clinic,824 TAMPINES ST 81 520824,1.34903743492173,103.932714940567
GREENLIFE CLINIC & SURGERY,CHAS Clinic,11 CANBERRA RD 759775,1.44902668521597,103.820139486431
GREENLIFE CLINIC & SURGERY,CHAS Clinic,624 CHOA CHU KANG STREET 62 680624,1.3980473611046,103.747084778715
GREENLINK MEDICAL CLINIC,CHAS Clinic,807 YISHUN RING ROAD 760807,1.41649875780089,103.831578419639
GSH CLINIC & SURGERY PTE. LTD.,CHAS Clinic,9 YIO CHU KANG ROAD 545523,1.35466521856974,103.876883622707
Gerrard Teoh Hematology & Medical Clinic,CHAS Clinic,10 SINARAN DRIVE 307506,1.3207051098625,103.844160709873
GreenForest Family Clinic,CHAS Clinic,878C TAMPINES AVENUE 8 523878,1.35126411242426,103.929363834353
H S LEE CLINIC & SURGERY,CHAS Clinic,173 YISHUN AVE 7 760173,1.43706628201915,103.831120689791
HARMONY FAMILY CLINIC,CHAS Clinic,235 CHOA CHU KANG CENTRAL 680235,1.3797566438487,103.748749195678
HAVELOCK FAMILY CLINIC,CHAS Clinic,22 HAVELOCK RD 160022,1.28874603715013,103.828824191963
HEAL MEDICAL CENTRE,CHAS Clinic,262 BALESTIER ROAD 329714,1.32213342793662,103.85319966194
HEALTH PARTNERS FAMILY CLINIC,CHAS Clinic,1 BT BATOK CENTRAL LINK 658713,1.35001920966652,103.749244800522
HEALTH PARTNERS MEDICAL CLINIC,CHAS Clinic,100 Cecil Street 069532,1.28113563498683,103.848958253576
HEALTH PARTNERS MEDICAL CLINIC (SIGLAP),CHAS Clinic,23 UPPER EAST COAST ROAD 455289,1.31312677933466,103.926329604059
HEALTH PARTNERSHIP MEDICAL CENTRE,CHAS Clinic,109 BUKIT PURMEI RD 090109,1.27392939913176,103.825310761058
HEALTHBRIDGE FAMILY CLINIC,CHAS Clinic,615A EDGEFIELD PLAINS 821615,1.40386056418231,103.909541012266
HEALTHCARE FAMILY CLINIC & SURGERY,CHAS Clinic,403 SIN MING AVE 570403,1.36287032246814,103.833604034065
HEALTHCARE MEDICAL @ Kovan,CHAS Clinic,208 HOUGANG STREET 21 530208,1.35869679921108,103.886636110951
HEALTHCARE MEDICAL @ RAILMALL,CHAS Clinic,"446 UPPER BUKIT TIMAH ROAD, 678067",1.35960982893863,103.767604074877
HEALTHIFY MEDICAL FAMILY CLINIC,CHAS Clinic,262 BALESTIER ROAD 329714,1.32213342793662,103.85319966194
HEALTHLINE FAMILY CLINIC & SURGERY PTE. LTD.,CHAS Clinic,25A CHAI CHEE ROAD 461025,1.32328959901597,103.924149637094
HEALTHLINK (AMK) MEDICAL CENTRE,CHAS Clinic,108 ANG MO KIO AVE 4 560108,1.37096635229769,103.838201939907
HEALTHLINK FAMILY CLINIC & SURGERY,CHAS Clinic,21 GHIM MOH ROAD 270021,1.31010302628844,103.788545950367
EVERHEALTH MEDICAL CENTRE,CHAS Clinic,540 HOUGANG AVENUE 8 530540,1.37781568096983,103.891282466742
EVERTON CLINIC,CHAS Clinic,7 EVERTON PARK 080007,1.27692435181046,103.838679504053
EVERWELL CLINIC & SURGERY,CHAS Clinic,45 OWEN RD 210045,1.31559567557441,103.850825476113
EXCEL FAMILY CLINIC,CHAS Clinic,21 HOUGANG ST 51 538719,1.37924529078289,103.88783201701
EXCELSIOR CLINIC & SURGERY,CHAS Clinic,283 BT BATOK EAST AVE 3 650283,1.34694365739119,103.757539380941
Edgedale Medical Clinic (Cambridge),CHAS Clinic,40 CAMBRIDGE ROAD 210040,1.3159930169211,103.848243054151
Elissa Medical Clinic,CHAS Clinic,1 HOUGANG STREET 91 538692,1.37571530662888,103.879472338027
Elyon Family Clinic And Surgery,CHAS Clinic,78B TELOK BLANGAH STREET 32 102078,1.27363296004244,103.808335234688
Etern Medical Clinic,CHAS Clinic,70 PUNGGOL CENTRAL 828868,1.40454653696814,103.902072622227
Etern Medical Clinic (Fernvale Palm),CHAS Clinic,432A SENGKANG WEST WAY 791432,1.39475047621055,103.877202311346
Etern Medical Clinic (Sengkang),CHAS Clinic,33 SENGKANG WEST AVENUE 797653,1.39147015412078,103.876125506847
Eterna Medical Clinic,CHAS Clinic,629 ANG MO KIO AVENUE 4 560629,1.38010475022238,103.840408652686
F K LIM FAMILY CLINIC,CHAS Clinic,267 TAMPINES ST 21 520267,1.3507727878183,103.949259231371
FAITH CLINIC (BEDOK),CHAS Clinic,746 BEDOK RESERVOIR ROAD 470746,1.33728644810221,103.921215743798
FAITH CLINIC (SIMEI),CHAS Clinic,139 SIMEI ST 1 520139,1.34668351018352,103.956561347989
FAITH CLINIC (TOA PAYOH),CHAS Clinic,211 TOA PAYOH LOR 8 310211,1.34042178823098,103.853768900177
FAITH CLINIC (YISHUN),CHAS Clinic,598 YISHUN RING ROAD 768698,1.41795288509924,103.841268831273
FAITH FAMILY CLINIC,CHAS Clinic,57 MARINE TERRACE 440057,1.30651257339373,103.91548479998
FAITH HEALTHCARE (RIVERVALE),CHAS Clinic,11 RIVERVALE CRESCENT 545082,1.39250411008759,103.904483668484
FAITH HEALTHCARE (TAMPINES),CHAS Clinic,11 TAMPINES STREET 32 529287,1.3545494425702,103.959900188924
FAITH MEDICAL CLINIC & SURGERY,CHAS Clinic,487C TAMPINES ST 45 522487,1.36075820419992,103.957884241959
FAJAR FAMILY CLINIC & SURGERY,CHAS Clinic,445 FAJAR ROAD 670445,1.38358044593591,103.77076830515
FAMILY CARE CLINIC & SURGERY,CHAS Clinic,608 ANG MO KIO AVE 5 560608,1.37858210019768,103.836760311656
FAMILY CARE CLINIC PTE LTD,CHAS Clinic,415 BT BATOK WEST AVE 4 650415,1.36326877933412,103.746610701854
FAMILY CARE MEDICAL CENTRE PTE LTD,CHAS Clinic,916 Hougang Ave 9 530916,1.37491294218702,103.884293734337
FAMILY HEALTH CLINIC,CHAS Clinic,43 Holland Drive 270043,1.3074341112717,103.792897574707
FAMILY HEALTH CLINIC & SURGERY,CHAS Clinic,2 BALESTIER ROAD 320002,1.32589620222,103.842935479988
FAMILY HEALTH MEDICAL CENTRE,CHAS Clinic,226G ANG MO KIO AVE 1 567226,1.36682590272899,103.839861074062
CLIFFORD DISPENSARY PTE LTD,CHAS Clinic,50 AIRPORT BOULEVARD 819658,1.34821194016273,103.985459981704
CLIFFORD DISPENSARY PTE LTD,CHAS Clinic,350 ORCHARD ROAD 238868,1.30580981572661,103.831507365278
CLINIC @ THE SAIL,CHAS Clinic,2 MARINA BOULEVARD 018987,1.28076943496046,103.85265856205
CLINIC FARIDAH,CHAS Clinic,59 NEW UPPER CHANGI ROAD 461059,1.32405898637368,103.940695612374
CLINICAL ASSOCIATES MEDICAL CENTRE,CHAS Clinic,137 TECK WHYE LANE 680137,1.38004753002611,103.752483840899
CMY Medical,CHAS Clinic,37 CHAI CHEE AVENUE 461037,1.32544200316618,103.926207634385
COMFORT CLINIC & SURGERY,CHAS Clinic,214 SERANGOON AVE 4 550214,1.35732435179355,103.873633486993
COMPASSVALE 297A MEDICAL CLINIC,CHAS Clinic,297A COMPASSVALE ST 541297,1.39483596046538,103.900697317522
COUNTRYSIDE CLINIC AND SURGERY,CHAS Clinic,106 YISHUN RING RD 760106,1.43147861410692,103.827452004281
CRAWFURD MEDICAL,CHAS Clinic,3 TEMASEK BOULEVARD 038983,1.29593189474123,103.859014406987
CRESCENT CLINIC &  SURGERY,CHAS Clinic,1A EUNOS CRESCENT 401001,1.32129030506821,103.902727807655
CREST FAMILY CLINIC PTE. LTD.,CHAS Clinic,724 WOODLANDS AVE 6 730724,1.44466656455938,103.79871304314
CROSS STREET MEDICAL CLINIC,CHAS Clinic,531 UPPER CROSS STREET 050531,1.28439238197795,103.846101472114
Calrose Medical Family Clinic,CHAS Clinic,231A SUMANG LANE 821231,1.40205917712603,103.891879097963
Camry Medical Centre,CHAS Clinic,95 Toa Payoh Lorong 4 310095,1.33889072192265,103.848993317286
Canberra Care Medical Clinic,CHAS Clinic,120 CANBERRA CRESCENT 750120,1.4456745291262,103.831508132382
Care Family Clinic,CHAS Clinic,663 BUFFALO ROAD 210663,1.30568031682027,103.850857725358
Caring Family Clinic,CHAS Clinic,501 JURONG WEST STREET 51 640501,1.34981225393483,103.719222201398
Central 24-HR Clinic ( Pioneer North ),CHAS Clinic,959 JURONG WEST STREET 92 640959,1.34148123560942,103.690721731343
Central 24HR Clinic (Jurong West),CHAS Clinic,492 JURONG WEST STREET 41 640492,1.34994543580238,103.725180466271
Changi Clinic,CHAS Clinic,848 Sims Avenue 400848,1.31720886041624,103.901431784397
Chin Medical Clinic,CHAS Clinic,524A JELAPANG ROAD 671524,1.38540569301034,103.766228468168
Chua & Partners Family Clinic,CHAS Clinic,18 Jalan Membina 164018,1.28569742860668,103.826785447839
Chua Medical Centre Pte Ltd,CHAS Clinic,248 Simei St 3 520248,1.34359376286677,103.953541142784
Chua Medical Clinic And Surgery Pte. Ltd.,CHAS Clinic,642 BUKIT BATOK CENTRAL 650642,1.34900647929724,103.751706683251
Chung & Ee Medical Clinic,CHAS Clinic,10 TELOK BLANGAH CRESCENT 090010,1.27773153221637,103.819769431776
Circuit Medical Clinic,CHAS Clinic,36 CIRCUIT ROAD 370036,1.32902607935956,103.886930797614
CityGP Family Clinic,CHAS Clinic,122 BEDOK NORTH STREET 2 460122,1.32861719819575,103.937787149156
CityHealth Clinic & Surgery,CHAS Clinic,152 Beach Road 189721,1.29884087991136,103.859351023904
Clinic@Costa,CHAS Clinic,84 BAYSHORE ROAD 469994,1.31218816522514,103.940116990924
Clover Medical Clinic Pte Ltd,CHAS Clinic,21 CHOA CHU KANG NORTH 6 689578,1.39706712804272,103.746637430571
Cornerstone Medical,CHAS Clinic,29A GHIM MOH LINK 271029,1.30849288053919,103.784598100789
Cornerstone Medical Bidadari,CHAS Clinic,106A BIDADARI PARK DRIVE 341106,1.33413900018418,103.871259715426
Corporation Clinic (Choa Chu Kang),CHAS Clinic,253 Choa Chu Kang Ave 1 680253,1.37736607411235,103.744393648371
Crossroads Family Clinic,CHAS Clinic,601B TAMPINES AVENUE 9 522601,1.36088277451527,103.937510784032
DA CLINIC @ POTONG PASIR,CHAS Clinic,51 UPPER SERANGOON ROAD 347697,1.33149708060439,103.868214025397
DA Clinic @ Anson,CHAS Clinic,10 ANSON ROAD 079903,1.27588674304532,103.84592379296
DA clinic @ Anchorvale,CHAS Clinic,351 ANCHORVALE ROAD 540351,1.39332786576656,103.886617624917
DA clinic @ Bukit Batok,CHAS Clinic,451 BUKIT BATOK WEST AVENUE 6 650451,1.35303824914482,103.743948447105
DA clinic @ Sembawang,CHAS Clinic,604 SEMBAWANG ROAD 758459,1.44182470635163,103.824845207379
DA clinic @ Taman Jurong,CHAS Clinic,140 Corporation Drive 610410,1.01626425482099,103.581751807954
DAILY MEDICAL CENTRE,CHAS Clinic,159 HOUGANG STREET 11 530159,1.35144832553092,103.879517231861
DAVITA MEDICAL & DIALYSIS CENTRE (JURONG EAST),CHAS Clinic,2 VENTURE DRIVE 608526,1.33015172116219,103.744574632224
DAYSPRING MEDICAL CLINIC (TAMPINES),CHAS Clinic,2 TAMPINES CENTRAL 5 529509,1.35236829560034,103.943812302435
DOCTORS FOR LIFE MEDICAL,CHAS Clinic,3 PICKERING STREET 048660,1.28428813152396,103.847429981968
DOCTORS INC MEDICAL GROUP,CHAS Clinic,178 TOA PAYOH CENTRAL 310178,1.33358025833851,103.849264521174
"DOCTORS KOO, LOH & ASSOCIATES (PTE) LTD",CHAS Clinic,152 YUNG HO RD 610152,1.32707670705423,103.720708632127
DOVER MEDICAL CENTRE,CHAS Clinic,1 FUSIONOPOLIS WAY 138632,1.29915016462316,103.787581248398
DR CHUA'S FAMILY CLINIC PTE. LTD.,CHAS Clinic,638 JURONG WEST STREET 61 640638,1.34169239237791,103.697174842354
DR JOYCE & PARTNERS FAMILY CLINIC,CHAS Clinic,224A SUMANG LANE 821224,1.40195621611022,103.892811293348
DR LIM LEAN HUAT & ASSOCIATES PTE LTD,CHAS Clinic,101 IRRAWADDY ROAD 329565,1.32047597480701,103.843252763122
DR SOH FAMILY CLINIC,CHAS Clinic,966 JURONG WEST STREET 93 640966,1.34170245992124,103.692916978325
DRS CHUA & PARTNERS PTE LTD,CHAS Clinic,1 TANJONG PAGAR PLAZA 082001,1.27568702794453,103.842433596845
"DRS KOO, KOH & ASSOCIATES P.L.",CHAS Clinic,163 BUKIT MERAH CENTRAL 150163,1.2836613928251,103.817072709118
DRS LIM & CHAN CLINIC,CHAS Clinic,2 LOR LEW LIAN 531002,1.35060795579762,103.875680063619
DRS LIM & CHAN CLINIC,CHAS Clinic,106 HOUGANG AVE 1 530106,1.35370297114613,103.890680792157
"DRS OH, LIM, WONG & PARTNERS",CHAS Clinic,959 JURONG WEST ST 92 640959,1.34148123560942,103.690721731343
"DRS SINGH & PARTNERS, RAFFLES CITY MEDICAL CENTRE",CHAS Clinic,252 NORTH BRIDGE RD 179103,1.29376028146733,103.8527683243
DRS TANG & PARTNERS PTE. LTD.,CHAS Clinic,64 YUNG KUANG ROAD 610064,1.33237347600046,103.722451247982
DTAP @ Robertson,CHAS Clinic,11 UNITY STREET 237995,1.29189934215369,103.841475100183
DTAP @ SIGLAP,CHAS Clinic,914 EAST COAST ROAD 459108,1.31205928217535,103.92444984956
DTAP @ Somerset,CHAS Clinic,1 GRANGE ROAD 239693,1.30139878843175,103.837359153263
DUXTON MEDICAL CLINIC CANBERRA,CHAS Clinic,361 SEMBAWANG CRESCENT 750361,1.44631506786133,103.813936814037
DaVita Medical & Dialysis Centre (Farrer Park),CHAS Clinic,1 FARRER PARK STATION ROAD 217562,1.31247324146379,103.853929522028
DaVita Medical & Dialysis Centre (Novena),CHAS Clinic,101 IRRAWADDY ROAD 329565,1.32047597480701,103.843252763122
Dawson Medical Clinic,CHAS Clinic,85 DAWSON ROAD 141085,1.29531966312279,103.809758591462
Doctors Clinic & Surgery,CHAS Clinic,305 Woodlands Street 31 730305,1.43036145793777,103.774102413755
Dover Clinic and Surgery Pte Ltd,CHAS Clinic,28 DOVER CRESCENT 130028,1.30446092684555,103.781779696786
Dr Chen and Partners Medical Clinic,CHAS Clinic,9 SIN MING ROAD 575630,1.35319495294524,103.835564729732
Dr Chua & Lee Family Clinic,CHAS Clinic,213 BISHAN STREET 23 570213,1.35717822107249,103.848152968836
Dr Gary's Family Clinic,CHAS Clinic,77 INDUS ROAD 160077,1.29113483647707,103.826764453903
Dr Jeremy Chan Medical Clinic,CHAS Clinic,123 LORONG 1 TOA PAYOH 310123,1.33864901778038,103.845703844549
Dr Joyce & Partners Family Clinic (Toa Payoh Branch),CHAS Clinic,177 TOA PAYOH CENTRAL 310177,1.33390034089973,103.848854818027
Dr Nah & Lee Family Clinic,CHAS Clinic,780 WOODLANDS CRESCENT 730780,1.4483415501858,103.801057143564
Dr Stanley Peck Family Clinic,CHAS Clinic,636 BUKIT BATOK CENTRAL 650636,1.34963274148521,103.751825709259
Dr Steven Ang Aesthetic & Family Clinic,CHAS Clinic,75D Redhill Road 154075,1.28846476848129,103.815711568942
Dr W.K. Koo & Associates P.L.,CHAS Clinic,1 JURONG WEST CENTRAL 2 648886,1.33945271688955,103.706685012636
Dr.W Family Clinic,CHAS Clinic,8 EMPRESS ROAD 260008,1.31641190070436,103.805373812286
Drs Chan & Tang Family Clinic,CHAS Clinic,125 LORONG 1 TOA PAYOH 310125,1.33833133425818,103.845737117486
"Drs Koo, Fok & Associates Pte Ltd",CHAS Clinic,55 BENOI ROAD 629907,1.32561764091444,103.678410551478
"Drs Koo, Fok & Associates( Pioneer )",CHAS Clinic,31 JURONG WEST STREET 63 648310,1.3375870106289,103.697321608176
Duxton Medical Clinic,CHAS Clinic,7 TANJONG PAGAR PLAZA 081007,1.27712012192209,103.84311774345
E MEDICAL CLINIC & SURGERY,CHAS Clinic,126 LORONG 1 TOA PAYOH 310126,1.33781465664298,103.845130852041
E. L. CHIN FAMILY CLINIC & SURGERY PTE. LTD.,CHAS Clinic,432 CLEMENTI AVE 3 120432,1.31402057647513,103.762740587674
E.J. TAN CLINIC & SURGERY,CHAS Clinic,104 JURONG EAST STREET 13 600104,1.33658465341547,103.737623303578
EAST COAST FAMILY CLINIC,CHAS Clinic,121 MEYER ROAD 437932,1.29769266267746,103.894446070261
EAST COAST MEDICAL CENTRE PTE LTD,CHAS Clinic,57A NEW UPPER CHANGI RD 462057,1.32371678656959,103.941288714677
EASTERN CLINIC & SURGERY PTE LTD,CHAS Clinic,235 JURONG EAST STREET 21 600235,1.33997597903837,103.742159955431
EASTERN CLINIC & SURGERY PTE LTD,CHAS Clinic,318 JURONG EAST STREET 31 600318,1.34750822879295,103.73056069188
EASTERN CLINIC AND DENTAL SURGERY,CHAS Clinic,303 JURONG EAST ST 32 600303,1.34485611221062,103.735622181592
EASTERN MEDICAL CENTRE,CHAS Clinic,631 BEDOK RESERVOIR RD 470631,1.33295923548327,103.914941831149
EC Family Clinic,CHAS Clinic,30 EUNOS CRESCENT 409423,1.31976065842876,103.903047958629
EDGEDALE MEDICAL CLINIC,CHAS Clinic,122A EDGEDALE PLAINS 821122,1.39350981246858,103.90910656253
EE CLINIC,CHAS Clinic,128 ANG MO KIO AVE 3 560128,1.3708320282205,103.843546990564
EH MEDICAL FAMILY CLINIC (BUKIT BATOK),CHAS Clinic,292 BUKIT BATOK EAST AVENUE 6 650292,1.34449810534059,103.755375174448
EH Medical,CHAS Clinic,785E WOODLANDS RISE 735785,1.44680413878616,103.805487571931
EHA CLINIC @ Jurong,CHAS Clinic,492 JURONG WEST STREET 41 640492,1.34994543580238,103.725180466271
EJ FAMILY CLINIC & SURGERY,CHAS Clinic,109 TOA PAYOH LOR 1 310109,1.34123727109327,103.846202461177
EL SHADDAI ARTHRITIS + RHEUMATISM SPECIALIST MEDICAL CENTRE,CHAS Clinic,102 TOWNER ROAD 322102,1.32058609482407,103.862002015014
ELIAS FAMILY CLINIC & SURGERY,CHAS Clinic,625 ELIAS RD 510625,1.37860239755804,103.941978174961
EMMANUEL MEDICAL CLINIC,CHAS Clinic,272 TAMPINES ST 22 520272,1.34915941815592,103.95028148718
EON MEDICAL CLINIC,CHAS Clinic,475 UPPER SERANGOON CRESCENT 530475,1.37571547934496,103.900675272909
ESSENTIAL FAMILY CLINIC & SURGERY,CHAS Clinic,626A WOODLANDS DR 52 731626,1.43409799393499,103.800131263153
ESTEEMED MEDICAL CLINIC,CHAS Clinic,260 ANG MO KIO STREET 21 560260,1.36891592440303,103.834501165254
ESTHER YEO CLINIC,CHAS Clinic,256 JURONG EAST ST 24 600256,1.34416527281328,103.738263366894
ETERN MEDICAL CLINIC (PUNGGOL SUMANG LRT),CHAS Clinic,308C PUNGGOL WALK 823308,1.40800694968972,103.899074358389
EVANGEL MEDICAL CLINIC,CHAS Clinic,10 CHAI CHEE RD 467010,1.32727572409468,103.924803599547
EVERCARE MEDICAL CLINIC,CHAS Clinic,253 CHOA CHU KANG AVE 1 680253,1.37736607411235,103.744393648371
EVERCARE MEDICAL CLINIC (475) PTE LTD,CHAS Clinic,475 CHOA CHU KANG AVE 3 680475,1.37789727696934,103.739015486131
EVERHEALTH FAMILY CLINIC & SURGERY,CHAS Clinic,762 JURONG WEST ST 75 640762,1.34874357156987,103.697732090659
FAMILY HEALTHCARE CLINIC & SURGERY PTE LTD,CHAS Clinic,523 HOUGANG AVE 6 530523,1.37372091211225,103.890706990241
FAMILY LIFE CLINIC,CHAS Clinic,727 CLEMENTI WEST ST 2 120727,1.3046248764802,103.763817745262
FAMILY MEDICAL CLINIC PTE LTD,CHAS Clinic,280 BT BATOK EAST AVE 3 650280,1.3477014777938,103.757044584459
FAMILY MEDICARE CLINIC & SURGERY,CHAS Clinic,721 ANG MO KIO AVE 8 560721,1.37234984800157,103.847899479496
FAMILY MEDICINE CLINIC,CHAS Clinic,58 MARINE TERRACE 440058,1.30611781278668,103.914026029639
FAMILYCARE CLINIC & SURGERY,CHAS Clinic,85C TOA PAYOH LOR 4 313085,1.33628570923804,103.847479439025
FEMA CLINIC & SURGERY,CHAS Clinic,10 SINARAN DRIVE 307506,1.3207051098625,103.844160709873
FINEST HEALTH MEDICAL CENTRE,CHAS Clinic,19 LORONG 7 TOA PAYOH 310019,1.33528228586453,103.856504185567
FIRST CARE FAMILY CLINIC & SURGERY,CHAS Clinic,253 JURONG EAST ST 24 600253,1.34318835753237,103.736785753592
FIRST MEDICAL CENTRE PTE LTD,CHAS Clinic,169 STIRLING ROAD 140169,1.29043486494243,103.803105949038
FIRST MEDICAL CLINIC & SURGERY,CHAS Clinic,167 WOODLANDS ST 11 730167,1.43359370625977,103.775884057974
FIRSTHEALTH CLINIC & SURGERY,CHAS Clinic,126 KIM TIAN ROAD 160126,1.28253466924079,103.829470015099
FOCUS MEDICAL CENTRE,CHAS Clinic,137 TECK WHYE LANE 680137,1.38004753002611,103.752483840899
FONG CLINIC,CHAS Clinic,162 MEI LING ST 140162,1.2922546717017,103.802856952292
FOO CLINIC,CHAS Clinic,962 JURONG WEST ST 91 640962,1.34201784065971,103.69148311528
FRASER MEDICAL CENTRE,CHAS Clinic,78A TELOK BLANGAH ST 32 101078,1.27338751529297,103.808980553653
FRIENDSHIP CLINIC & SURGERY,CHAS Clinic,1 JALAN BUKIT MERAH 150001,1.28645354013154,103.808242400061
FRONTIER MEDICAL ASSOCIATES,CHAS Clinic,982 BUANGKOK CRESCENT 530982,1.38085035421403,103.879309094037
FRONTIER MEDICAL ASSOCIATES,CHAS Clinic,163 ANG MO KIO AVE 4 560163,1.37354853932334,103.838176471518
FRONTIER MEDICAL ASSOCIATES,CHAS Clinic,304 UBI AVENUE 1 400304,1.32955256814021,103.901228610039
FRONTIER MEDICAL ASSOCIATES,CHAS Clinic,899C WOODLANDS DR 50 732899,1.43656985620916,103.795261266782
FRONTIER MEDICAL ASSOCIATES,CHAS Clinic,654 YISHUN AVE 4 760654,1.42305346406148,103.840410312781
FRONTIER MEDICAL ASSOCIATES,CHAS Clinic,105 CANBERRA STREET 750105,1.44885888645002,103.8324062093
FRONTIER MEDICAL ASSOCIATES,CHAS Clinic,440 BUKIT BATOK WEST AVENUE 8 650440,1.35572308150266,103.739303105448
FRONTIER MEDICAL ASSOCIATES,CHAS Clinic,451 BUKIT BATOK WEST AVE 6 650451,1.35303824914482,103.743948447105
FRONTIER MEDICAL ASSOCIATES,CHAS Clinic,691 WOODLANDS DRIVE 73 730691,1.44062992413871,103.806198056521
FULLERTON HEALTH @ DRS TRYTHALL HOY DAVIES,CHAS Clinic,391B ORCHARD ROAD 238874,1.30242417185937,103.834676124776
FULLERTON HEALTHCARE @ ARC,CHAS Clinic,460 ALEXANDRA ROAD 119963,1.27398640019417,103.801264139133
FUSION MEDICAL HEALTH SCREENING & AESTHETIC,CHAS Clinic,501 ORCHARD ROAD 238880,1.30467628686208,103.830642027915
Faith Clinic (Jurong West),CHAS Clinic,762 JURONG WEST ST 75 640762,1.34874357156987,103.697732090659
Famicare Bedok Clinic Pte Ltd,CHAS Clinic,158 Bedok South Avenue 3 460158,1.31873582672514,103.945086743402
Family Doctors at 365,CHAS Clinic,365 CORPORATION DRIVE 610365,1.33772592748385,103.720184719407
Family Medicine Clinic Chinatown,CHAS Clinic,133 NEW BRIDGE ROAD 059413,1.28499882861736,103.844697080902
Fernvale Family Clinic,CHAS Clinic,405C FERNVALE LANE 793405,1.38919466650292,103.873437403062
First Light Family Clinic & Surgery,CHAS Clinic,272 Bukit Batok East Avenue 4 650272,1.34879030670709,103.757864718234
Foo And Ong Family Clinic Pte. Ltd.,CHAS Clinic,151 BUKIT BATOK ST 11 650151,1.34874703498808,103.744211484368
Frontier Family Medicine Clinic,CHAS Clinic,3151 COMMONWEALTH AVENUE WEST 129581,1.3142704390532,103.76514748726
Frontier Medical Associates,CHAS Clinic,678D JURONG WEST STREET 64 644678,1.34486489516062,103.703395356357
Frontier People's Clinic,CHAS Clinic,123 BEDOK NORTH STREET 2 460123,1.32919868633173,103.937343348132
Fullerton Health @ NTU,CHAS Clinic,36 NANYANG AVENUE 639801,1.34536991705032,103.682668844091
Fullerton Health @ OFC,CHAS Clinic,10 COLLYER QUAY 049315,1.28320475137081,103.851909612057
Fullerton Health @ Watsons (Changi City Point),CHAS Clinic,5 CHANGI BUSINESS PARK CENTRAL 1 486038,1.33408360486513,103.962946072076
Fullerton Healthcare @ Drs Trythall Hoy Davies,CHAS Clinic,1 JURONG WEST CENTRAL 2 648886,1.33945271688955,103.706685012636
Fullerton Healthcare @ Gethin-Jones,CHAS Clinic,78 SHENTON WAY 079120,1.2732000622671,103.84529056569
Fullerton Healthcare @ MBFC,CHAS Clinic,10 MARINA BOULEVARD 018981,1.27946938564498,103.85374955327
Fullerton Healthcare @ Metropolis,CHAS Clinic,9 NORTH BUONA VISTA DRIVE 138588,1.30624556797731,103.791237458059
Fullerton Healthcare Screening Centre,CHAS Clinic,391B ORCHARD ROAD 238874,1.30242417185937,103.834676124776
Fusion Medical & Health Screening Centre,CHAS Clinic,1 FUSIONOPOLIS LINK 138542,1.29925468196734,103.789607732973
G & H MEDICAL CLINIC PTE LTD,CHAS Clinic,106 YISHUN RING ROAD 760106,1.43147861410692,103.827452004281
G S CLINIC & SURGERY,CHAS Clinic,632 ANG MO KIO AVE 4 560632,1.37992681961038,103.841432372506
G.I.F.T MEDICAL CENTRE,CHAS Clinic,389 UPPER ALJUNIED RD 367874,1.33317933421739,103.878829907545
GARDEN CLINIC,CHAS Clinic,304 SERANGOON AVE 2 550304,1.35381345318208,103.867773013652
GEYLANG BAHRU CLINIC,CHAS Clinic,16 UPPER BOON KENG RD 380016,1.31543175845042,103.871651573599
GLOBAL CARE MEDICAL,CHAS Clinic,77 JALAN MALU-MALU 769687,1.44381831615093,103.825776599298
GOH CLINIC & SURGERY,CHAS Clinic,204 HOUGANG ST 21 530204,1.3588191151875,103.884988426823
"HUA MEI CLINIC, WHAMPOA",CHAS Clinic,300 WHAMPOA DRIVE 327737,1.32486749271072,103.857201210738
HUAN CLINIC,CHAS Clinic,51 CHIN SWEE ROAD 160051,1.2874030082089,103.842029779252
HUI CLINIC + SURGERY,CHAS Clinic,157 ANG MO KIO AVE 4 560157,1.37530562129984,103.839395071325
HWANG & LIANG FAMILY CLINIC & SURGERY,CHAS Clinic,476 TAMPINES ST 44 520476,1.36092283905723,103.95335936462
Hamid Family Clinic & Surgery,CHAS Clinic,156 Pasir Ris St 13 510156,1.36408364491692,103.962895349626
Health First Family Clinic,CHAS Clinic,26 JALAN MEMBINA 161026,1.28263437658533,103.825595753279
HealthMatters - The Family Practice,CHAS Clinic,"1 Pasir Ris Close, 519599",1.37912717895311,103.955444757708
HealthMed Family Clinic (Bukit Panjang),CHAS Clinic,416 Saujana Road 670416,1.38319686720506,103.768454110363
Healthcare AMK Medical Clinic,CHAS Clinic,157 ANG MO KIO AVENUE 4 560157,1.37530562129984,103.839395071325
Healthcare Hougang Medical Clinic,CHAS Clinic,311 HOUGANG AVENUE 5 530311,1.36566733051337,103.894853675365
Healthlife Family Clinic,CHAS Clinic,296A BUKIT BATOK STREET 22 651296,1.34409358188013,103.746409176593
Healthmark Family Clinic (Compassvale),CHAS Clinic,263 Compassvale Street 540263,1.39484816497783,103.896042267939
Healthmark Family Medicine Clinic,CHAS Clinic,601 Choa Chu Kang St 62 680601,1.39693363037626,103.744921736282
Healthmark Medical Clinic,CHAS Clinic,639 Punggol Drive 820639,1.39944615058909,103.916054652799
Healthmark Pioneer Mall Clinic,CHAS Clinic,638 Jurong West Street 61 640638,1.34169239237791,103.697174842354
Healthpath Medical Clinic and Surgery,CHAS Clinic,338 ANG MO KIO AVENUE 1 560338,1.3638957019431,103.848986957423
Healthsprings Medical & Laser Clinic,CHAS Clinic,105A BIDADARI PARK DRIVE 341105,1.33400699198631,103.870430572629
Healthsprings Medical Clinic,CHAS Clinic,524A JELAPANG ROAD 671524,1.38540569301034,103.766228468168
Healthway Medical,CHAS Clinic,218 BEDOK NORTH ST 1 460218,1.32749295502142,103.934249434387
Healthway Medical,CHAS Clinic,90 Hougang Avenue 10 538766,1.37249493836098,103.893775562591
Healthway Medical,CHAS Clinic,690 JURONG WEST CENTRAL 1 640690,1.34118688532867,103.706710011276
Healthway Medical,CHAS Clinic,168 Punggol Field 820168,1.39423719749383,103.913047323352
Healthway Medical,CHAS Clinic,503 Tampines Central 1 520503,1.35580335647499,103.945102946946
Healthway Medical,CHAS Clinic,177 Toa Payoh Central 310177,1.33390034089973,103.848854818027
Healthway Medical,CHAS Clinic,108 HOUGANG AVE 1 530108,1.3527739328609,103.890093177136
Healthway Medical,CHAS Clinic,6A SHENTON WAY 068815,1.27796672374231,103.849007895658
Healthway Medical,CHAS Clinic,118 RIVERVALE DRIVE 540118,1.38533736141014,103.901841043722
FAMILY HEALTHCARE CLINIC & SURGERY,CHAS Clinic,151 SERANGOON NORTH AVE 2 550151,1.36934534973621,103.873778334173
Healthway Medical,CHAS Clinic,888 WOODLANDS DR 50 730888,1.43712301469225,103.79531438351
Healthway Medical,CHAS Clinic,201D TAMPINES STREET 21 524201,1.35226231434834,103.953586491461
Healthway Medical,CHAS Clinic,101 YISHUN AVENUE 5 760101,1.43053575388582,103.827667722133
Healthway Medical,CHAS Clinic,446 BUKIT BATOK WEST AVENUE 8 650446,1.35017085094578,103.739084635311
Healthway Medical,CHAS Clinic,705 SERANGOON ROAD 328127,1.31799485295601,103.859085390214
Healthway Medical,CHAS Clinic,461 YISHUN AVENUE 6 760461,1.42841471934027,103.849972823964
Healthway Medical,CHAS Clinic,267 Compassvale Link 540267,1.38374441791265,103.89704655689
Healthway Medical,CHAS Clinic,10 SINARAN DRIVE 307506,1.3207051098625,103.844160709873
Healthway Medical,CHAS Clinic,727 Clementi West  Street 2 120727,1.3046248764802,103.763817745262
Healthway Medical,CHAS Clinic,308 ANCHORVALE ROAD 540308,1.38955848478423,103.886426650155
Healthway Medical,CHAS Clinic,960 JURONG WEST ST 92 640960,1.34138531152671,103.691459639169
Healthway Medical,CHAS Clinic,475 CHOA CHU KANG AVE 3 680475,1.37789727696934,103.739015486131
Healthway Medical,CHAS Clinic,721 Ang Mo Kio Ave 8 560721,1.37234984800157,103.847899479496
Healthway Medical,CHAS Clinic,445 FAJAR ROAD 670445,1.38358044593591,103.77076830515
Healthway Medical,CHAS Clinic,710 TAMPINES ST 71 520710,1.35860238778915,103.937730608185
Healthway Medical,CHAS Clinic,443 CLEMENTI AVENUE 3 120443,1.31421051604588,103.764010395269
Healthway Medical,CHAS Clinic,30 SEMBAWANG DRIVE 757713,1.44819535415187,103.819502127479
Healthway Medical,CHAS Clinic,153 BUKIT BATOK ST 11 650153,1.34747947809009,103.744276460475
Healthway Medical,CHAS Clinic,717 WOODLANDS DRIVE 70 730717,1.44087378957359,103.799494171179
Healthway Medical,CHAS Clinic,452 ANG MO KIO AVE 10 560452,1.36889751154086,103.856200835268
Healthwerkz Medical Centre (CCK),CHAS Clinic,225 CHOA CHU KANG CENTRAL 680225,1.38109065346169,103.744889593655
Healthwerkz medical centre @ orchard,CHAS Clinic,9 SCOTTS ROAD 228210,1.3065470470191,103.832128173794
Heartland Family Clinic,CHAS Clinic,333C YISHUN STREET 31 763333,1.43188998725882,103.845790190573
HeartlandHealth,CHAS Clinic,87 WHAMPOA DRIVE 320087,1.32328917056723,103.855735558254
Hill Spring Medical,CHAS Clinic,12 JALAN LEBAN 577552,1.37154719878388,103.829175553654
Hisemainn Medical Clinic (Bukit Batok),CHAS Clinic,289E BUKIT BATOK ST 25 654289,1.34417029371853,103.759431387572
Hisemainn Medical Clinic (Jurong West),CHAS Clinic,276 JURONG WEST ST 25 640276,1.35361178019917,103.703725312401
Horizon Medical Centre,CHAS Clinic,200 Upper Thomson Road 574424,1.35184499139998,103.836053648693
LIFELINE BISHAN MEDICAL CLINIC,CHAS Clinic,501 BISHAN ST 11 570501,1.34841689766538,103.84907733333
LIFELINE BUKIT PANJANG MEDICAL CLINIC,CHAS Clinic,103 GANGSA ROAD 670103,1.37867070866309,103.768538441068
LIFELINE MEDICAL CENTRE,CHAS Clinic,710 CLEMENTI WEST ST 2 120710,1.30628911897632,103.761518107763
LIFELINE MEDICAL GROUP,CHAS Clinic,118 RIVERVALE DRIVE 540118,1.38533736141014,103.901841043722
LIFELINE NEIGHBOURHOOD MEDICAL CLINIC,CHAS Clinic,280 BUKIT BATOK EAST AVE 3 650280,1.3477014777938,103.757044584459
LIFELINE PUNGGOL MEDICAL CLINIC PTE LTD,CHAS Clinic,198 PUNGGOL FIELD 820198,1.39946295696544,103.906402433947
LIFELINE YISHUN RING MEDICAL CLINIC,CHAS Clinic,846 YISHUN RING ROAD 760846,1.41678634673088,103.834641578841
LIFELINK SN CLINIC & SURGERY,CHAS Clinic,153 Serangoon North Avenue 1 550153,1.36995099695439,103.872312298307
LILY AW PASIR RIS FAMILY CLINIC & SURGERY,CHAS Clinic,446 PASIR RIS DR 6 510446,1.37030619330386,103.957726864829
LIM CLINIC & SURGERY,CHAS Clinic,20 CHAI CHEE ROAD 461020,1.32627271273425,103.922885287164
LIM CLINIC & SURGERY,CHAS Clinic,109 TOA PAYOH LOR 1 310109,1.34123727109327,103.846202461177
LIM COUNTRY CLINIC,CHAS Clinic,208 HOUGANG ST 21 530208,1.35869679921108,103.886636110951
LIN & SONS CLINIC & SURGERY PTE LTD,CHAS Clinic,18 TECK WHYE LANE 680018,1.37829768774576,103.754071399254
LIVEWELL MEDICAL FAMILY CLINIC,CHAS Clinic,20 AH HOOD ROAD 329984,1.3269450448725,103.846554377717
LO & LEE CLINIC & SURGERY,CHAS Clinic,134 LORONG AH SOO 530134,1.35046468301438,103.886509353222
LOH CLINIC,CHAS Clinic,45 SIMS DR 380045,1.31733721507169,103.878442674599
LOI+WONG CLINIC & SURGERY,CHAS Clinic,492 JURONG WEST ST 41 640492,1.34994543580238,103.725180466271
LONDON (MH) CLINIC & SURGERY,CHAS Clinic,104 HOUGANG AVE 1 530104,1.35478438650586,103.890318475998
LOW & LEE CLINIC & SURGERY,CHAS Clinic,55 CHAI CHEE DR 460055,1.32684846987483,103.919015572902
LOW MEDICAL CLINIC,CHAS Clinic,67 KALLANG BAHRU 330067,1.3213944644766,103.869336175072
LUM CLINIC & SURGERY,CHAS Clinic,109 BUKIT PURMEI RD 090109,1.27392939913176,103.825310761058
LUSUMU Family Clinic,CHAS Clinic,530 Bedok North St 3 460530,1.33371332045971,103.927020293721
Lakeside Family Medicine Clinic,CHAS Clinic,518A JURONG WEST STREET 52 641518,1.34513828527898,103.71885762802
Lee Respiratory and Sleep Clinic,CHAS Clinic,820 THOMSON ROAD 574623,1.34182282585918,103.837601167324
Lian Clinic,CHAS Clinic,18 Marsiling Lane 730018,1.44341700675837,103.777861242043
Lifescan Medical Centre,CHAS Clinic,290 ORCHARD ROAD 238859,1.30387230856356,103.835857545111
Lily Neo Clinic Pte Ltd,CHAS Clinic,101 IRRAWADDY ROAD 329565,1.32047597480701,103.843252763122
Lim Clinic,CHAS Clinic,446 ANG MO KIO AVE10 560446,1.36776095160051,103.855357145899
Hua Mei Clinic,CHAS Clinic,298 TIONG BAHRU ROAD 168730,1.28629937149605,103.828093503377
I-HEALTH MEDICAL CLINIC,CHAS Clinic,30 BENDEMEER ROAD 330030,1.31930336749337,103.864049815076
ICON MEDICAL CLINIC,CHAS Clinic,517 JURONG WEST ST 52 640517,1.34584959191131,103.71972430603
IDOC CLINIC (HONG KAH) PTE LTD,CHAS Clinic,502 JURONG WEST AVENUE 1 640502,1.3505012764805,103.718334683532
INTEMEDICAL 24 HOUR CLINIC,CHAS Clinic,525 ANG MO KIO AVENUE 10 560525,1.37262666866782,103.853976743936
ISLAND FAMILY CLINIC (ANCHORVALE),CHAS Clinic,338 ANCHORVALE CRESCENT 540338,1.39922857033118,103.889653919266
ISLAND FAMILY CLINIC (FERNVALE),CHAS Clinic,473A FERNVALE STREET 791473,1.39785974899126,103.881232764558
ISLAND FAMILY CLINIC (KEAT HONG),CHAS Clinic,803 KEAT HONG CLOSE 680803,1.37415533414763,103.742759621795
Integrated Wellness Clinic,CHAS Clinic,8 SINARAN DRIVE 307470,1.32003005040623,103.844782386419
Island Family Clinic & Endoscopy Centre,CHAS Clinic,338 ANCHORVALE CRESCENT 540338,1.39922857033118,103.889653919266
Island Family Clinic (Bedok),CHAS Clinic,763 BEDOK RESERVOIR VIEW 470763,1.33607209518397,103.93483060668
Island Family Clinic (Bukit Batok),CHAS Clinic,447 BUKIT BATOK WEST AVENUE 9 650447,1.35269613886399,103.739809933345
Island Family Clinic (Sengkang),CHAS Clinic,279 SENGKANG EAST AVENUE 540279,1.38621835450901,103.893038290272
Island Medical Clinic,CHAS Clinic,55 Newton Road 307987,1.3195180026839,103.842154838462
JAPAN CLINIC AND SURGERY,CHAS Clinic,802 FRENCH RD 200802,1.30764582352943,103.860269172947
JIREH FAMILY CLINIC,CHAS Clinic,883 WOODLANDS ST 82 730883,1.44275333234585,103.790548015767
JJ CLINIC & SURGERY,CHAS Clinic,107 ANG MO KIO AVENUE 4 560107,1.37138400101395,103.837381409799
JO-LIN FAMILY CLINIC & SURGERY,CHAS Clinic,533 CHOA CHU KANG ST 51 680533,1.39207388757417,103.743099573448
JOY CLINIC AND SURGERY,CHAS Clinic,844 YISHUN ST 81 760844,1.41562517359593,103.835446503405
JOY FAMILY CLINIC,CHAS Clinic,703 BEDOK RESERVOIR ROAD 470703,1.33716507465033,103.91989305506
JUBILEE FAMILY PHYSICIANS,CHAS Clinic,258 PASIR RIS ST 21 510258,1.36707357511654,103.964632224965
JURONG EAST CLINIC,CHAS Clinic,114 JURONG EAST ST 13 600114,1.33921386441237,103.734609974421
JW Corporation Clinic Pte Ltd,CHAS Clinic,507 Jurong West Street 52 640507,1.34902708947199,103.71842993374
Jade Medical Clinic Pte Ltd,CHAS Clinic,8 EU TONG SEN STREET 059818,1.28895619965092,103.84679624319
Jane & Lee Sembawang Family Clinic,CHAS Clinic,483 Admiralty Link 750483,1.45603699743209,103.815580869089
Jireh Heart centre,CHAS Clinic,38 IRRAWADDY ROAD 329563,1.32214005414322,103.844212383776
Joash Family Clinic & Surgery,CHAS Clinic,1030 UPPER SERANGOON ROAD 534767,1.36298113879038,103.888536901518
JoyHealth Medical Clinic & Surgery,CHAS Clinic,825 Tampines Street 81 520825,1.34943750949191,103.932787707033
K L TAY CLINIC & SURGERY,CHAS Clinic,632 BEDOK RESERVOIR RD 470632,1.3320509461928,103.914145075391
K N CHIN & ASSOCIATES PTE LTD,CHAS Clinic,24 RAFFLES PLACE 048621,1.28385576222736,103.852130314179
K N CHIN & ASSOCIATES PTE LTD Medical Practice,CHAS Clinic,3 TEMASEK BOULEVARD 038983,1.29593189474123,103.859014406987
K. B. TAN CLINIC & LASER SURGERY,CHAS Clinic,625 ELIAS RD 510625,1.37860239755804,103.941978174961
K2 MEDICAL CLINIC,CHAS Clinic,248 SIMEI STREET 3 520248,1.34359376286677,103.953541142784
KALLANG BAHRU FAMILY CLINIC PTE. LTD.,CHAS Clinic,66 KALLANG BAHRU 330066,1.32066445659415,103.869914603946
KANG AN CLINIC PTE LTD,CHAS Clinic,644 BT BATOK CENTRAL 650644,1.34866680951042,103.751790332685
KANG CLINIC,CHAS Clinic,532 ANG MO KIO AVENUE 10 560532,1.37380851529933,103.854594160953
KAO & TAN FAMILY MEDICAL CENTRE & SURGERY PTE LTD,CHAS Clinic,18 JALAN MEMBINA 164018,1.28569742860668,103.826785447839
KARRI FAMILY CLINIC,CHAS Clinic,866A TAMPINES ST 83 521866,1.35536454222897,103.934477898456
KCS Medical Centre Pte Ltd,CHAS Clinic,515 Bedok North Ave 2 460515,1.33186656501132,103.92996022996
KEAT HONG FAMILY MEDICINE CLINIC,CHAS Clinic,2 CHOA CHU KANG LOOP 689687,1.3840958723943,103.74494935896
KENSINGTON FAMILY CLINIC,CHAS Clinic,14D KENSINGTON PARK ROAD 557265,1.36526817884598,103.866111068633
KEPPEL MEDICAL GROUP,CHAS Clinic,9 TELOK BLANGAH CRESCENT 090009,1.27740785896679,103.819408460582
KHO CLINIC,CHAS Clinic,537 BEDOK NORTH ST 3 460537,1.33177300798251,103.924236461317
KHOO CLINIC & SURGERY,CHAS Clinic,998 UPPER SERANGOON RD 534737,1.36228493590194,103.887787767312
KILLINEY MEDICAL CLINIC,CHAS Clinic,61 KILLINEY ROAD 239522,1.2989203432892,103.839550953076
KIM TIAN CLINIC,CHAS Clinic,71 SENG POH ROAD 160071,1.28424655163417,103.83250362737
KING GEORGE'S MEDICAL CLINIC PTE LTD,CHAS Clinic,803 KING GEORGE'S AVE 200803,1.30836526388985,103.860912780811
KL NG MEDICAL CLINIC PTE LTD,CHAS Clinic,1 JALAN BUKIT MERAH 150001,1.28645354013154,103.808242400061
KO FAMILY CLINIC,CHAS Clinic,18 UPPER BOON KENG ROAD 380018,1.31480351435198,103.872301458327
KOH CLINIC & SURGERY,CHAS Clinic,166 BUKIT BATOK WEST AVENUE 8 650166,1.34715255026952,103.742824825687
KOH'S T & T CLINIC AND SURGERY PTE. LTD.,CHAS Clinic,237 SERANGOON AVE 3 550237,1.35381198304475,103.870134574381
KONG KIAN CLINIC,CHAS Clinic,187 UPPER PAYA LEBAR ROAD 534869,1.34010827019145,103.885032593446
Kai Clinic,CHAS Clinic,223 EAST COAST ROAD 428920,1.30763657069386,103.907133515337
Kai Medical Clinic,CHAS Clinic,5 Tampines Street 32 529284,1.35436493798362,103.960042188158
Katong Family Clinic Pte Ltd,CHAS Clinic,263 TANJONG KATONG ROAD 437050,1.30780276675294,103.895551267298
Kelinik Maju,CHAS Clinic,414 Eunos Road 5 400414,1.31811559243751,103.89822067311
Kenneth Loo Family Clinic,CHAS Clinic,152 Bishan St 11 570152,1.34565720338064,103.854641447659
Kenneth Tan Medical Clinic,CHAS Clinic,658 PUNGGOL EAST 820658,1.39990420685096,103.919352747597
Ki Medical Clinic,CHAS Clinic,416 ANG MO KIO AVENUE 10 560416,1.36454170930926,103.855103690664
Kin Mun Clinic,CHAS Clinic,66 LORONG 4 TOA PAYOH 310066,1.33501332560942,103.851778402295
L & H POLYCLINIC AND SURGERY,CHAS Clinic,59 LENGKOK BAHRU 150059,1.28879800624276,103.814352117212
L & L FAMILY MEDICINE CLINIC,CHAS Clinic,6 SIN MING ROAD 575585,1.35286373397832,103.83640721143
L'ving Vine Medical & Wellness Clinic,CHAS Clinic,154 WEST COAST ROAD 127371,1.30369748988215,103.766131294904
LAI MEDICAL CLINIC PTE LTD,CHAS Clinic,213 BT BATOK ST 21 650213,1.34681845431119,103.752496875132
LAN MEDICAL CLINIC & SURGERY,CHAS Clinic,308 CLEMENTI AVE 4 120308,1.32105184993965,103.766910446786
LAVENDER MEDICAL CLINIC & SURGERY PTE LTD,CHAS Clinic,803 KING GEORGE'S AVENUE 200803,1.30836526388985,103.860912780811
LC Clinic Medical Surgery Aesthetics,CHAS Clinic,446 CLEMENTI AVENUE 3 120446,1.31251305739568,103.764927758834
LEE & KOH FAMILY CLINIC,CHAS Clinic,359 BUKIT BATOK ST 31 650359,1.36134370364268,103.751230683361
LEE & TAN FAMILY CLINIC AND SURGERY,CHAS Clinic,72 CIRCUIT RD 370072,1.32454761116775,103.887943886651
LEE CLINIC,CHAS Clinic,467C JOO CHIAT ROAD 427678,1.30659584489558,103.904770224664
LEE CLINIC,CHAS Clinic,123 BEDOK NORTH ST 2 460123,1.32919868633173,103.937343348132
LEE CLINIC AND SURGERY,CHAS Clinic,505 ANG MO KIO AVE 8 560505,1.37485973000549,103.850224901617
LEE FAMILY CLINIC PTE. LTD.,CHAS Clinic,762 JURONG WEST STREET 75 640762,1.34874357156987,103.697732090659
LEONG CLINIC,CHAS Clinic,63B LENGKOK BAHRU 152063,1.28907506818611,103.815318433238
LER CLINIC & SURGERY,CHAS Clinic,835 TAMPINES ST 83 520835,1.351138337645,103.933863132113
LIANG CLINIC,CHAS Clinic,55 SIGLAP ROAD 455871,1.31260423076805,103.923185592863
LIEW CLINIC & SURGERY,CHAS Clinic,116 BT MERAH VIEW 151116,1.28513427063832,103.821532226324
LIFE FAMILY CLINIC,CHAS Clinic,713 ANG MO KIO AVE 6 560713,1.37145809323897,103.846516327213
LIFE FAMILY CLINIC,CHAS Clinic,10 CHOA CHU KANG AVENUE 4 689810,1.38533510950362,103.74435225035
LIFE-LINK CLINIC & SURGERY,CHAS Clinic,446 PASIR RIS DR 6 510446,1.37030619330386,103.957726864829
LIFECARE FAMILY CLINIC,CHAS Clinic,524A JELAPANG ROAD 671524,1.38540569301034,103.766228468168
LIFECARE FAMILY CLINIC & SURGERY,CHAS Clinic,102 YISHUN AVE 5 760102,1.43061830395979,103.828762985206
LIFECARE FAMILY CLINIC & SURGERY,CHAS Clinic,106 HOUGANG AVE 1 530106,1.35370297114613,103.890680792157
LIFECARE MEDICAL CENTRE,CHAS Clinic,36 CIRCUIT ROAD 370036,1.32902607935956,103.886930797614
HEALTHLINK MEDICAL CLINIC & SURGERY,CHAS Clinic,5 UPPER ALJUNIED LANE 360005,1.33372866023576,103.879898474189
HEALTHMARK CLINIC (PASIR RIS),CHAS Clinic,735 PASIR RIS STREET 72 510735,1.37966812078368,103.936574613556
HEALTHPLUS CLINIC & SURGERY,CHAS Clinic,631 BEDOK RESERVOIR ROAD 470631,1.33295923548327,103.914941831149
HEALTHPLUS FAMILY CLINIC & SURGERY,CHAS Clinic,78A TELOK BLANGAH ST 32 101078,1.27338751529297,103.808980553653
HEALTHPOINT FAMILY CLINIC & SURGERY PTE LTD,CHAS Clinic,48 TANGLIN HALT RD 142048,1.30078900913879,103.797626151203
HEALTHSPRINGS MEDICAL ASSOCIATES,CHAS Clinic,541 ORCHARD RD 238881,1.30508722668002,103.830722581301
HEALTHWAY MEDICAL,CHAS Clinic,417 YISHUN AVE 11 760417,1.4243850677914,103.846329063086
HEALTHWAY MEDICAL,CHAS Clinic,110 LENGKONG TIGA 410110,1.32365345260201,103.910853622903
HEALTHWAY MEDICAL,CHAS Clinic,330 ANG MO KIO AVE 1 560330,1.36243186375124,103.851030689601
HEALTHWAY MEDICAL,CHAS Clinic,406 SEMBAWANG DR 750406,1.45292980559221,103.816977584507
HEALTHWAY MEDICAL,CHAS Clinic,3 Gateway Drive 608532,1.33415754643914,103.742766383664
HEALTHWAY MEDICAL,CHAS Clinic,748 YISHUN STREET 72 760748,1.42751898225106,103.833450479218
HEALTHWAY MEDICAL CLINIC,CHAS Clinic,534 CHOA CHU KANG ST 51 680534,1.39224240557078,103.743190998217
HEALTHWERKZ MEDICAL CENTRE @ SEMB MRT,CHAS Clinic,11 CANBERRA ROAD 759775,1.44902668521597,103.820139486431
HEALTHWISE MEDICAL CLINIC & SURGERY,CHAS Clinic,41 JALAN TIGA 390041,1.30782736795111,103.884763845833
HK FAMILY CLINIC & SURGERY PTE LTD,CHAS Clinic,410 ANG MO KIO AVE 10 560410,1.36271541943285,103.854644986918
HL CLINIC PTE LTD,CHAS Clinic,9 TELOK BLANGAH CRESCENT 090009,1.27740785896679,103.819408460582
HL FAMILY CLINIC & SURGERY PTE LTD,CHAS Clinic,111 JALAN BUKIT MERAH 160111,1.28032113582023,103.826185854452
HL FAMILY CLINIC & SURGERY(BEDOK) PTE LTD,CHAS Clinic,89 BEDOK NORTH STREET 4 460089,1.3323346834519,103.938051284815
HO MEDICAL CENTRE PTE LTD,CHAS Clinic,352 CLEMENTI AVENUE 2 120352,1.31427860262492,103.771350557955
HO MEDICAL CLINIC,CHAS Clinic,101 UPPER CROSS ST 058357,1.28577009942741,103.843980123077
HO TONG CLINIC,CHAS Clinic,35 CIRCUIT RD 370035,1.32915899651205,103.886010316195
HONG ASSOCIATES CLINIC,CHAS Clinic,111 JLN BUKIT MERAH 160111,1.28032113582023,103.826185854452
HONG FAMILY CLINIC,CHAS Clinic,282 TAMPINES ST 22 520282,1.34775409914604,103.952436775108
HONG'S CLINIC PEOPLE'S PARK CENTRE,CHAS Clinic,101 UPPER CROSS STREET 058357,1.28577009942741,103.843980123077
HOPE FAMILY CLINIC AND SURGERY,CHAS Clinic,883 WOODLANDS ST 82 730883,1.44275333234585,103.790548015767
HOUGANG FAMILY MEDICINE CLINIC,CHAS Clinic,51 HOUGANG AVENUE 9 538776,1.3753225375634,103.882931930103
PRINCETON FAMILY CLINIC PTE LTD.,CHAS Clinic,445 FAJAR RD 670445,1.38358044593591,103.77076830515
PRO-LIFE MEDICAL ASSOCIATES,CHAS Clinic,253 CHOA CHU KANG AVE 1 680253,1.37736607411235,103.744393648371
PROCROSS MEDICAL CENTRE,CHAS Clinic,449 HOUGANG AVENUE 10 530449,1.37878098225427,103.895153601889
PROHEALTH 24-HOUR MEDICAL CLINIC,CHAS Clinic,259 BUKIT PANJANG RING RD 671259,1.37704293097595,103.773310086642
PROHEALTH MEDICAL GROUP @ BUANGKOK PTE LTD,CHAS Clinic,275D COMPASSVALE LINK 544275,1.38290495770245,103.893713485412
PROHEALTH MEDICAL GROUP @LRT FERNVALE PTE LTD,CHAS Clinic,437 FERNVALE ROAD 790437,1.39255040576997,103.876330395063
PROVIDENCE CLINIC @ BALESTIER,CHAS Clinic,400 BALESTIER ROAD 329802,1.32572472592378,103.850395374008
PSALMS FAMILY CLINIC,CHAS Clinic,293 YISHUN ST 22 760293,1.43611425443645,103.837605236392
PUBLIC MEDICAL CLINIC & SURGERY,CHAS Clinic,664 YISHUN AVE 4 760664,1.4201998655916,103.841074642965
PULSE CLINIC PTE LTD,CHAS Clinic,38 BEO CRESCENT 160038,1.28855393147757,103.827290023429
PUNGGOL FAMILY CLINIC PTE. LTD.,CHAS Clinic,322 SUMANG WALK 820322,1.41124703487775,103.897501361321
Pacific Medical Clinic,CHAS Clinic,290 ORCHARD ROAD 238859,1.30387230856356,103.835857545111
PanCare Medical Clinic,CHAS Clinic,133 ANG MO KIO AVENUE 3 560133,1.37113968579534,103.842644163602
PanHealth Family Clinic,CHAS Clinic,312B SUMANG LINK 822312,1.41135309600349,103.900614671741
Pariqua Clinic,CHAS Clinic,47 Bendemeer Road 330047,1.32339741230277,103.866812029635
Parklane Medical Centre,CHAS Clinic,35 SELEGIE ROAD 188307,1.30064530182129,103.849448611741
Parkway Shenton Medical Group,CHAS Clinic,451 CLEMENTI AVENUE 3 120451,1.31248298515734,103.765476756799
Parkway Shenton Medical Group,CHAS Clinic,10 EUNOS ROAD 8 408600,1.31899666916027,103.894894916119
Parkway Shenton Medical Group,CHAS Clinic,205 HOUGANG STREET 21 530205,1.35954177322502,103.885167372761
Parkway Shenton Medical Group,CHAS Clinic,7 CHANGI BUSINESS PARK CRESCENT 486028,1.33483540517389,103.96657136529
Parkway Shenton Medical Group,CHAS Clinic,681 PUNGGOL DRIVE 820681,1.4027801572994,103.913215100957
ParkwayHealth Primary Care Network,CHAS Clinic,11 COLLYER QUAY 049317,1.28361958417727,103.85206894582
Parsons Medical Clinic Pte Ltd,CHAS Clinic,779 YISHUN AVENUE 2 760779,1.42214461370293,103.833261316719
Peace Family Clinic (WL832),CHAS Clinic,832 WOODLANDS STREET 83 730832,1.43966937731987,103.790761499043
Peak Medical Clinic & Surgery,CHAS Clinic,601B TAMPINES AVENUE 9 522601,1.36088277451527,103.937510784032
Phoenix Medical Group,CHAS Clinic,1 SELETAR ROAD 807011,1.387395393577,103.869135978399
Phoenix Medical Group (Hillview),CHAS Clinic,4 Hillview Rise 667979,1.36267450798777,103.764172920441
New Town Clinic Pte Ltd,CHAS Clinic,59 New Upper Changi Road 461059,1.32405898637368,103.940695612374
Northeast Medical Group,CHAS Clinic,30 SIMEI STREET 3 529888,1.34319707870222,103.953377214636
Northeast Medical Group,CHAS Clinic,20 TAMPINES CENTRAL 1 529538,1.35330167667677,103.945144586726
Northeast Medical Group,CHAS Clinic,10 BUKIT BATOK CENTRAL 659958,1.34903331182218,103.749566478137
Northeast Medical Group,CHAS Clinic,25 GHIM MOH LINK 270025,1.30814746868332,103.786255228682
Norwood Medical Clinic,CHAS Clinic,785E WOODLANDS RISE 735785,1.44680413878616,103.805487571931
Novena Medical Center Family Clinic,CHAS Clinic,10 SINARAN DRIVE 307506,1.3207051098625,103.844160709873
NuHealth Medical Centre,CHAS Clinic,1 WOODLANDS ROAD 677899,1.38032239850194,103.760139846504
Nyam Family Clinic,CHAS Clinic,296 BEDOK ROAD 469452,1.33156190358539,103.948582654929
O2 Medical Clinic,CHAS Clinic,527D PASIR RIS STREET 51 514527,1.36968625480057,103.947922425172
OC MEDICAL RAFFLES PLACE,CHAS Clinic,1 RAFFLES PLACE 048616,1.28434954581843,103.851072545442
OEI & KHO CLINIC AND SURGERY,CHAS Clinic,18 LORONG 7 TOA PAYOH 310018,1.33575723636727,103.856789628566
OGL MEDICAL CENTERS,CHAS Clinic,10 SINARAN DRIVE 307506,1.3207051098625,103.844160709873
OGL MEDICAL JURONG EAST,CHAS Clinic,353 JURONG EAST STREET 31 600353,1.34438071297667,103.730588041072
OGL MEDICAL QUEENSTOWN,CHAS Clinic,158 MEI LING STREET 140158,1.29274038368447,103.802806668566
ONECARE CLINIC ALJUNIED MRT,CHAS Clinic,81 LORONG 25 GEYLANG 388310,1.31644118839199,103.882964033687
ONECARE CLINIC AMK CHENG SAN PTE LTD,CHAS Clinic,531 ANG MO KIO AVENUE 10 560531,1.37332712954829,103.854382572738
ONECARE CLINIC BEDOK MRT,CHAS Clinic,315 NEW UPPER CHANGI ROAD 467347,1.32398184936043,103.92995373635
ONECARE CLINIC CLEMENTI,CHAS Clinic,449 CLEMENTI AVENUE 3 120449,1.31361567922805,103.7648099668
ONECARE CLINIC FERNVALE,CHAS Clinic,417 FERNVALE LINK 790417,1.39158623013568,103.879874611056
ONECARE CLINIC HOUGANG AVE 8,CHAS Clinic,681 HOUGANG AVENUE 8 530681,1.37297840263115,103.885679159796
ONECARE CLINIC PUNGGOL PLAZA,CHAS Clinic,168 PUNGGOL FIELD 820168,1.39423719749383,103.913047323352
ONECARE CLINIC TAMPINES MRT,CHAS Clinic,20 TAMPINES CENTRAL 1 529538,1.35330167667677,103.945144586726
ONELIFE FAMILY CLINIC,CHAS Clinic,534 CHOA CHU KANG ST 51 680534,1.39224240557078,103.743190998217
ONG'S CLINIC,CHAS Clinic,175 BENCOOLEN ST 189649,1.3022432705157,103.852700214599
ORCHARD GROUP CLINIC,CHAS Clinic,545 ORCHARD RD 238882,1.30550610766275,103.829984821697
OUR FAMILY CLINIC & SURGERY PTE LTD,CHAS Clinic,8 JLN BATU 431008,1.30263933997545,103.883179671945
OUR FAMILY CLINIC + SURGERY,CHAS Clinic,221 PASIR RIS ST 21 510221,1.37019473507472,103.961614666694
Physicians Practice Family Medical Center,CHAS Clinic,101 THOMSON ROAD 307591,1.31719450971532,103.843611442751
Pidemco Medical Centre Pte Ltd,CHAS Clinic,156 YISHUN ST 11 760156,1.43188761931188,103.83356775674
Lim Clinic,CHAS Clinic,295 CHANGI ROAD 419773,1.31819877434977,103.907117852416
Little Cross Family Clinic Pte Ltd,CHAS Clinic,929 Tampines St 91 520929,1.34639172452995,103.939613985216
M LAM CLINIC,CHAS Clinic,739 GEYLANG ROAD 389649,1.31497431972343,103.890469845778
M Medical Clinic,CHAS Clinic,681 RACE COURSE ROAD 210681,1.31372067347715,103.85527273394
MACPHERSON MEDICAL CLINIC,CHAS Clinic,78 CIRCUIT ROAD 370078,1.32788057151947,103.885220313162
MANDARIN MEDICAL CENTRE,CHAS Clinic,66 JLN JURONG KECHIL 598586,1.34056695989911,103.773903901185
MANHATTAN MEDICAL CENTRE,CHAS Clinic,151 CHIN SWEE ROAD 169876,1.28703443818283,103.84081324769
MARINA MEDICAL CENTRE (TIONG BAHRU),CHAS Clinic,78 GUAN CHUAN ST 160078,1.28332611342005,103.831014548809
MARINE PARADE CLINIC,CHAS Clinic,59 MARINE TERRACE 440059,1.30585966577796,103.914721779196
MARINE TERRACE FAMILY CLINIC,CHAS Clinic,57 MARINE TERRACE 440057,1.30651257339373,103.91548479998
MAY MEDICAL CLINIC & SURGERY PTE LTD,CHAS Clinic,41 HOLLAND DRIVE 270041,1.30762004868338,103.793463530856
MAYFAIR MEDICAL CLINIC,CHAS Clinic,182 WOODLANDS STREET 13 730182,1.43515895107837,103.77602334337
MD INTERNATIONAL MEDICAL CENTRE,CHAS Clinic,9 TAMAN SERASI 257720,1.30847204130269,103.819135632329
MEDEN CLINIC & SURGERY,CHAS Clinic,59 LENGKOK BAHRU 150059,1.28879800624276,103.814352117212
MEDI CLINIC,CHAS Clinic,2 JALAN KUKOH 163002,1.28857969896702,103.839614514953
MEDICA CLINIC,CHAS Clinic,681 HOUGANG AVE 8 530681,1.37297840263115,103.885679159796
MEDICAL AESTHETICS,CHAS Clinic,681 HOUGANG AVE 8 530681,1.37297840263115,103.885679159796
MEDICAL AESTHETICS,CHAS Clinic,450 CLEMENTI AVENUE 3 120450,1.31353886094619,103.765476305113
MEDICAL AND DENTAL CENTRE @ COMMONWEALTH,CHAS Clinic,88 TANGLIN HALT ROAD 141088,1.30203802186463,103.798021743481
MEDICARE ASSOCIATES,CHAS Clinic,482 TAMPINES AVE 9 ST 43 520482,1.36163049159223,103.953000934042
MEDICO CLINIC & SURGERY,CHAS Clinic,249 JURONG EAST STREET 24 600249,1.34256242271947,103.739259690046
MEDIHEALTH BISHAN CLINIC & SURGERY,CHAS Clinic,121 BISHAN ST 12 570121,1.34718667802698,103.851049225039
MEDILIFE CLINIC & SURGERY,CHAS Clinic,474 TAMPINES ST 43 520474,1.3598729915218,103.952787602752
MEDILINE WEI MIN CLINIC,CHAS Clinic,81 MARINE PARADE CENTRAL 440081,1.30264128620025,103.907073248069
MEDINA MEDICAL CENTRE,CHAS Clinic,479 TAMPINES STREET 44 520479,1.36143356274786,103.953567370888
MEDIPOINT MEDICAL CENTRE (PONGGOL BRANCH),CHAS Clinic,401 HOUGANG AVE 10 530401,1.3748433946064,103.896994161671
MEDIPOINT MEDICAL CENTRE (WOODLANDS BRANCH),CHAS Clinic,548 WOODLANDS DR 44 730548,1.43089714599658,103.793927429127
MEDIVENE CLINIC & SURGERY,CHAS Clinic,330 ANCHORVALE STREET 540330,1.39684979899238,103.889246755478
MEDLIFE CLINIC & SURGERY,CHAS Clinic,684 HOUGANG AVENUE 8 530684,1.37395840472847,103.886898456404
MEENARA CLINIC,CHAS Clinic,422 ANG MO KIO AVE 3 560422,1.36799988803163,103.851873942669
MEI LING CLINIC,CHAS Clinic,158 MEI LING ST 140158,1.29274038368447,103.802806668566
MEI LING CLINIC (TOA PAYOH),CHAS Clinic,500 LOR 6 TOA PAYOH 310500,1.33285542877339,103.847092284339
MERIDIAN MEDICAL AND DENTAL CENTRE,CHAS Clinic,327 HOUGANG AVE 5 530327,1.36830683228958,103.895987624634
MHC FAMILY CLINIC (ANG MO KIO),CHAS Clinic,452 ANG MO KIO AVE 10 560452,1.36889751154086,103.856200835268
MILFORD MEDICAL GROUP,CHAS Clinic,237 SERANGOON AVE 3 550237,1.35381198304475,103.870134574381
MILLENNIUM MEDICAL GROUP,CHAS Clinic,849 WOODLANDS ST 82 730849,1.44131059420711,103.792065607546
MILLENNIUM MEDICAL GROUP,CHAS Clinic,533 CHOA CHU KANG ST 51 680533,1.39207388757417,103.743099573448
MINMED CLINIC (HAIG ROAD),CHAS Clinic,30 HAIG RD 438737,1.3132165367769,103.895731869996
MINMED CLINIC (PASIR RIS),CHAS Clinic,1 PASIR RIS CENTRAL STREET 3 518457,1.37244981704712,103.949715695148
MINMED CLINIC (PUNGGOL),CHAS Clinic,83 PUNGGOL CENTRAL 828761,1.40648462103214,103.902105681174
MINMED CLINIC (YISHUN),CHAS Clinic,1 NORTHPOINT DRIVE 768019,1.42790289016825,103.836177650724
MINT MEDICAL CENTRE (FUNAN),CHAS Clinic,107 NORTH BRIDGE ROAD 179105,1.2913475971014,103.849989789705
MISSION MEDICAL CLINIC,CHAS Clinic,780 UPPER SERANGOON ROAD 534649,1.35450868285372,103.879280959211
MOBILEDOCTOR CLINIC,CHAS Clinic,20 CROSS STREET 048422,1.2837457628788,103.847469683651
MUTUAL HEALTHCARE MEDICAL CLINIC,CHAS Clinic,319B ANCHORVALE DR 542319,1.39139722628005,103.890466406973
MUTUAL HEALTHCARE MEDICAL CLINIC,CHAS Clinic,106A PUNGGOL FIELD 821106,1.39660486039663,103.908344134041
MY DOCTOR'S PLACE PTE LTD,CHAS Clinic,218 BEDOK NORTH STREET 1 460218,1.32749295502142,103.934249434387
MY FAMILY CLINIC (ANCHORVALE),CHAS Clinic,326A ANCHORVALE ROAD 541326,1.39491417281225,103.888000137553
MY FAMILY CLINIC (CHOA CHU KANG),CHAS Clinic,475 CHOA CHU KANG AVE 3 680475,1.37789727696934,103.739015486131
MY FAMILY CLINIC (CLEMENTI 325) PTE LTD,CHAS Clinic,325 CLEMENTI AVE 5 120325,1.31509668516835,103.766817400699
MY FAMILY CLINIC (SEGAR),CHAS Clinic,485 SEGAR ROAD 670485,1.38868132350767,103.771312569595
MY FAMILY CLINIC (ST GEORGE),CHAS Clinic,2 ST. GEORGE'S ROAD 328023,1.32241677134775,103.863267718732
MY FAMILY CLINIC (WOODLANDS GLEN),CHAS Clinic,573 WOODLANDS DRIVE 16 730573,1.43109807249328,103.7985076215
MY FAMILY CLINIC (WOODLANDS),CHAS Clinic,768 WOODLANDS AVE 6 730768,1.44562290748789,103.798140993881
MYDOCTOR@ADMIRALTY PTE LTD,CHAS Clinic,693 WOODLANDS AVENUE 6 730693,1.43808788035983,103.80376495913
MYHEALTH MEDICAL CENTRE,CHAS Clinic,501 WEST COAST DRIVE 120501,1.31129566349864,103.75886443455
Make-Well Family Clinic & Surgery,CHAS Clinic,70 LORONG 4 TOA PAYOH 310070,1.33444874920961,103.852333287775
Mary Medical Clinic and Surgery,CHAS Clinic,252 JURONG EAST STREET 24 600252,1.34302644245795,103.738145286322
Mayfair Medical Clinic (Yishun Chong Pang),CHAS Clinic,103 YISHUN RING ROAD 760103,1.43136934942161,103.828892847597
Medi Healthcare Clinic (Punggol),CHAS Clinic,218 SUMANG WALK 820218,1.40322712503317,103.895387022161
Medic Surgical & Laser Clinic,CHAS Clinic,1 TANJONG PAGAR PLAZA 082001,1.27568702794453,103.842433596845
Medivale Medical Clinic,CHAS Clinic,236 YISHUN RING ROAD 760236,1.43416807953309,103.83899894357
Mediview Clinic and Surgery,CHAS Clinic,150 Toa Payoh Lorong 1 310150,1.33378519647731,103.84451622696
Meridian Medical Centre,CHAS Clinic,108 Depot Road 100108,1.28084469424139,103.810292617921
Minmed Clinic (Jurong East),CHAS Clinic,50 JURONG GATEWAY ROAD 608549,1.33329334481438,103.743278742127
Minmed Clinic (Sengkang),CHAS Clinic,1 SENGKANG SQUARE 545078,1.39205314124118,103.895070543472
Minmed Health Screeners,CHAS Clinic,290 Orchard Road 238859,1.30387230856356,103.835857545111
Mint Medical Centre,CHAS Clinic,1 HARBOURFRONT PLACE 098633,1.26477806953607,103.819139250561
Mission (Bukit Batok) Medical Clinic,CHAS Clinic,395A Bukit Batok West Ave 5 651395,1.36393821477867,103.751896006132
Mission (Hougang) Medical Clinic,CHAS Clinic,356 HOUGANG AVE 7 530356,1.37259314180223,103.898813147316
Mission Cross Family Clinic,CHAS Clinic,348 YISHUN AVENUE 11 760348,1.42662488360089,103.842930213631
Mount Alvernia Outreach Medical Clinic,CHAS Clinic,20 LENGKOK BAHRU 159053,1.28736604111919,103.814818125298
Mount Alvernia Outreach Medical Clinic,CHAS Clinic,7A LORONG 8 TOA PAYOH 319264,1.3400817316314,103.856985734384
Mutual Healthcare Medical Clinic,CHAS Clinic,205A Compassvale Lane 541205,1.38603998431281,103.896966679981
My Family Clinic (Angsana Breeze @ Yishun),CHAS Clinic,507 YISHUN AVENUE 4 760507,1.41517413108586,103.83982778486
My Family Clinic (Clementi),CHAS Clinic,420A CLEMENTI AVENUE 1 121420,1.30979102118924,103.768657660932
My Family Clinic (Hougang Central),CHAS Clinic,804 HOUGANG CENTRAL 530804,1.37115128104866,103.894473676698
My Family Clinic (Pioneer),CHAS Clinic,638 Jurong West St 61 640638,1.34169239237791,103.697174842354
My Family Clinic (Punggol Central),CHAS Clinic,301 PUNGGOL CENTRAL 820301,1.40371939727893,103.906138007036
My Family Clinic (Rivervale),CHAS Clinic,11 Rivervale Crescent 545082,1.39250411008759,103.904483668484
My Family Clinic (Senja),CHAS Clinic,628 Senja Road 670628,1.38512867357186,103.760410617966
My Family Clinic (Tanglin Halt),CHAS Clinic,46-2 COMMONWEALTH DRIVE 140462,1.29996199426431,103.798227586733
My Family Clinic? (Toa Payoh Central),CHAS Clinic,79D TOA PAYOH CENTRAL 314079,1.33464084342805,103.849165515059
My doctor @ Lakeside,CHAS Clinic,201 BOON LAY WAY 649845,1.34425911463583,103.720949087875
N B THAM CLINIC PTE LTD,CHAS Clinic,8 WHAMPOA DRIVE 327718,1.3224904462066,103.853367215257
NANYANG CENTRE CLINIC,CHAS Clinic,959 JURONG WEST ST 92 640959,1.34148123560942,103.690721731343
NATIONAL CLINIC,CHAS Clinic,352 CLEMENTI AVE 2 120352,1.31427860262492,103.771350557955
NCS Medical Clinic,CHAS Clinic,"5 ANG MO KIO STREET 62, BLK A 569141",1.38789128850575,103.844038054823
NEECARE MEDICAL CENTRE,CHAS Clinic,371 BUKIT BATOK STREET 31 650371,1.35925940880518,103.75069463099
NEIGHBOURHOOD MEDICAL CLINIC,CHAS Clinic,683 HOUGANG AVE 8 530683,1.37331270083797,103.886367847372
NEO CLINIC  & SURGERY,CHAS Clinic,257 BANGKIT ROAD 670257,1.37850873569471,103.773212348102
NEO MEDICAL CENTRE,CHAS Clinic,120 POTONG PASIR AVE 1 350120,1.33545353276581,103.863387980485
NEOH & ONG MEDICAL CLINIC,CHAS Clinic,2A EUNOS CRESCENT 401002,1.32020110490051,103.903193510186
NEW HEALTH FAMILY CLINIC Pte Ltd,CHAS Clinic,108 Depot Road 100108,1.28084469424139,103.810292617921
NEW TOWN CLINIC,CHAS Clinic,11 UPPER BOON KENG ROAD 380011,1.31423937057055,103.870914031071
NEWCASTLE CLINIC,CHAS Clinic,541 ORCHARD ROAD 238881,1.30508722668002,103.830722581301
NEWEST MEDICAL AND LASER CLINIC PTE LTD,CHAS Clinic,1 WEST COAST DRIVE 128020,1.31641321897956,103.757451263607
NEWLIFE FAMILY CLINIC & SURGERY,CHAS Clinic,61 TEBAN GARDENS ROAD 600061,1.32213636288697,103.738292803759
NORTHEAST MEDICAL GROUP,CHAS Clinic,531 BEDOK NORTH ST 3 460531,1.33312991887095,103.926153139378
NORTHEAST MEDICAL GROUP,CHAS Clinic,5 Sengkang Square 545062,1.39174613260021,103.895508170861
NORTHEAST MEDICAL GROUP,CHAS Clinic,22 MALACCA STREET 048980,1.28394905743259,103.850862398592
NORTHEAST MEDICAL GROUP,CHAS Clinic,39 JALAN TIGA 390039,1.30782060284175,103.885092299821
NORTHEAST MEDICAL GROUP,CHAS Clinic,2450 ANG MO KIO AVENUE 8 569811,1.36993284966753,103.849558091899
NORTHLAND FAMILY CLINIC & SURGERY,CHAS Clinic,640 YISHUN ST 61 760640,1.42106180506188,103.838806520716
NOVO VITA CLINIC AND SURGERY,CHAS Clinic,131 JLN BUKIT MERAH 160131,1.28018941897319,103.828178444729
NTUC Health Family Medicine Clinic,CHAS Clinic,264 SERANGOON CENTRAL 550264,1.35227519863723,103.872103136189
NUFFIELD MEDICAL SIGLAP,CHAS Clinic,914 EAST COAST ROAD 459108,1.31205928217535,103.92444984956
NUTRAMED CLINIC,CHAS Clinic,1 GRANGE ROAD 239693,1.30139878843175,103.837359153263
Neptune Healthcare Medical & Surgery,CHAS Clinic,328 TAMPINES STREET 32 520328,1.3531661754088,103.958287519159
Healthway Medical,CHAS Clinic,625 ELIAS RD 510625,1.37860239755804,103.941978174961
Healthway Medical,CHAS Clinic,101 TOWNER ROAD 322101,1.31942539044681,103.861087462865
One Medical Clinic,CHAS Clinic,728 JURONG WEST AVENUE 5 640728,1.34609844042057,103.697698311825
OneCare Clinic Boon Lay,CHAS Clinic,221 BOON LAY PLACE 640221,1.3463481965558,103.712429315355
OneCare Clinic Canberra,CHAS Clinic,105 CANBERRA STREET 750105,1.44885888645002,103.8324062093
OneCare Clinic Woodlands,CHAS Clinic,4 Woodlands Street 12 738623,1.43354318103334,103.779881892363
OneDoctors Family Clinic,CHAS Clinic,710 ANG MO KIO AVENUE 8 560710,1.3710458307609,103.848186835446
OneDoctors Family Clinic,CHAS Clinic,253 HOLLAND AVENUE 278982,1.3113303854717,103.795582039212
OneDoctors Family Clinic,CHAS Clinic,846 YISHUN RING ROAD 760846,1.41678634673088,103.834641578841
OneDoctors Family Clinic,CHAS Clinic,83 PUNGGOL CENTRAL 828761,1.40648462103214,103.902105681174
OneDoctors Medical Centre,CHAS Clinic,23 SERANGOON CENTRAL 556083,1.35076935223904,103.872296143433
Onecare Clinic Bukit Batok,CHAS Clinic,630 BUKIT BATOK CENTRAL 650630,1.35008771762775,103.749914947577
Onecare Clinic Bukit Gombak MRT,CHAS Clinic,802 BUKIT BATOK WEST AVENUE 5 659083,1.35871216216159,103.751883836082
Onecare Clinic Bukit Panjang,CHAS Clinic,547 SEGAR ROAD 670547,1.3882402170722,103.769575386975
Onecare Clinic Choa Chu Kang,CHAS Clinic,810 CHOA CHU KANG AVENUE 7 680810,1.3740546177535,103.746160941802
Onecare Clinic Hougang,CHAS Clinic,104 HOUGANG AVENUE 1 530104,1.35478438650586,103.890318475998
Onecare Clinic Loyang,CHAS Clinic,258 PASIR RIS STREET 21 510258,1.36707357511654,103.964632224965
Onecare Clinic Marine Parade,CHAS Clinic,81 MARINE PARADE CENTRAL 440081,1.30264128620025,103.907073248069
Onecare Clinic Tampines,CHAS Clinic,827 TAMPINES STREET 81 520827,1.34972149524439,103.933719246548
Onecare Clinic Tiong Bahru,CHAS Clinic,11A BOON TIONG ROAD 161011,1.2863657812581,103.828789865619
Onecare Clinic Yishun,CHAS Clinic,431 YISHUN AVENUE 1 760431,1.42026334154091,103.84758940791
Oneness Medical,CHAS Clinic,31 HOLLAND CLOSE 270031,1.30697526841647,103.797080329535
Ong Clinic & Surgery (Yishun),CHAS Clinic,293 YISHUN STREET 22 760293,1.43611425443645,103.837605236392
Ong Clinic & Surgery Pte Ltd,CHAS Clinic,265 Bukit Batok East Ave 4 650265,1.35000840233326,103.759862833379
Ong Medical Clinic,CHAS Clinic,316B Ang Mo Kio St 31 563316,1.36462540282437,103.847677034523
P Tan Family Medicine Clinic,CHAS Clinic,503 BISHAN STREET 11 570503,1.34903237568207,103.848047514409
PACIFIC FAMILY CLINIC,CHAS Clinic,75D REDHILL ROAD 154075,1.28846476848129,103.815711568942
PACIFIC MEDICAL & DENTAL GROUP,CHAS Clinic,716 YISHUN ST 71 760716,1.42615726590364,103.827449409203
PAN ISLAND CLINIC & SURGERY,CHAS Clinic,632 BEDOK RESERVOIR RD 470632,1.3320509461928,103.914145075391
PANDAN CLINIC PTE LTD,CHAS Clinic,415 PANDAN GARDENS 600415,1.3207654337316,103.748258627183
PANHEALTH FAMILY CLINIC (HOUGANG),CHAS Clinic,932B HOUGANG AVENUE 9 532932,1.37512666138591,103.882234928016
PARKWAY SHENTON MEDICAL GROUP,CHAS Clinic,50 ROBINSON ROAD 068882,1.28093474477009,103.849822465586
PARKWAY SHENTON MEDICAL GROUP,CHAS Clinic,1 JELEBU ROAD 677743,1.37992045165028,103.764357180241
PASIR RIS CLINIC & SURGERY PTE LTD,CHAS Clinic,442 PASIR RIS DR 6 510442,1.36893288683695,103.957951722637
PEACE FAMILY CLINIC,CHAS Clinic,371 WOODLANDS AVE 1 730371,1.43228225786282,103.786714412892
PHOENIX CLINIC & SURGERY,CHAS Clinic,150 JALAN TECK WHYE 680150,1.37820351167481,103.756450878463
PHOENIX MEDICAL GROUP ( CACTUS ),CHAS Clinic,7 ANG MO KIO STREET 66 567708,1.39127591986847,103.850468725618
PHOENIX MEDICAL GROUP (PAYA LEBAR),CHAS Clinic,60 PAYA LEBAR ROAD 409051,1.3188148698027,103.892580778371
PHOON CLINIC AND SURGERY,CHAS Clinic,632 BEDOK RESERVOIR RD 470632,1.3320509461928,103.914145075391
PIER MEDICAL CENTRE,CHAS Clinic,725 JURONG WEST AVE 5 640725,1.34545354926714,103.697719623525
PINETREE MEDICAL CLINIC,CHAS Clinic,86 BEDOK NORTH STREET 4 460086,1.33254084334528,103.938989345549
PINNACLE FAMILY CLINIC (BUANGKOK SQUARE),CHAS Clinic,991 BUANGKOK LINK 530991,1.38433426584339,103.881623070219
PINNACLE FAMILY CLINIC (COMPASSVALE),CHAS Clinic,289C COMPASSVALE CRESCENT 543289,1.39755434211922,103.896797882092
PINNACLE FAMILY CLINIC (RIVER VALLEY),CHAS Clinic,240 RIVER VALLEY ROAD 238297,1.29420531470349,103.842399200559
PINNACLE FAMILY CLINIC (SERANGOON NORTH),CHAS Clinic,518 SERANGOON NORTH AVENUE 4 550518,1.37164118177384,103.874103124264
PINNACLE FAMILY CLINIC (WOODLANDS),CHAS Clinic,573 WOODLANDS DRIVE 16 730573,1.43109807249328,103.7985076215
PIONEER MEDICARE,CHAS Clinic,3 SOON LEE STREET 627606,1.33378307228245,103.697237932753
PJ CLINIC,CHAS Clinic,36 BEO CRESCENT 160036,1.28830079134407,103.827180352617
PLATINUM MEDICAL CLINIC AND SURGERY PTE LTD,CHAS Clinic,513 YISHUN STREET 51 760513,1.41600481783693,103.844255308291
PLUSHEALTH MEDICAL CLINIC & SURGERY,CHAS Clinic,89 WHAMPOA DRIVE 320089,1.32363913739046,103.854988582289
POINT MEDICAL GROUP (TAMAN JURONG),CHAS Clinic,399 YUNG SHENG ROAD 610399,1.33484487386451,103.720462024234
POW FAMILY CLINIC & SURGERY,CHAS Clinic,620 HOUGANG AVE 8 530620,1.3701440067348,103.883968140739
PRAISE FAMILY CLINIC,CHAS Clinic,717 TAMPINES ST 72 520717,1.35881526999725,103.935147321662
PREMIER CLINIC & SURGERY PTE LTD,CHAS Clinic,631 ANG MO KIO AVE 4 560631,1.3795572814979,103.840735651129
PRIME MEDICAL GROUP PTE LTD,CHAS Clinic,290 ORCHARD ROAD 238859,1.30387230856356,103.835857545111
RAFFLES EXECUTIVE MEDICAL CENTRE,CHAS Clinic,585 NORTH BRIDGE ROAD 188770,1.30120424133144,103.856827693726
RAFFLESMEDICAL,CHAS Clinic,21 CHOA CHU KANG AVE 4 689812,1.38497459642175,103.745011766594
RAFFLESMEDICAL,CHAS Clinic,722 ANG MO KIO AVE 8 560722,1.37224394014507,103.847529279188
RAFFLESMEDICAL,CHAS Clinic,809 HOUGANG CENTRAL 530809,1.37119603325419,103.893668163417
RAFFLESMEDICAL,CHAS Clinic,446 CLEMENTI AVENUE 3 120446,1.31251305739568,103.764927758834
RAFFLESMEDICAL,CHAS Clinic,203 BEDOK NORTH STREET 1 460203,1.32574461340975,103.929194613675
RAFFLESMEDICAL,CHAS Clinic,585 NORTH BRIDGE ROAD 188770,1.30120424133144,103.856827693726
RAFFLESMEDICAL,CHAS Clinic,17 PETIR ROAD 678278,1.37843100797107,103.76284278991
RC'S FAMILY CLINIC PTE LTD,CHAS Clinic,635C SENJA ROAD 673635,1.38650187015926,103.758433939114
RCMC RIVERVALE CRESCENT MEDICAL CENTRE,CHAS Clinic,182A RIVERVALE CRESCENT 541182,1.39045272949958,103.908892267477
REDWOOD @ TPY CLINIC AND SURGERY PTE. LTD.,CHAS Clinic,83 LORONG 2 TOA PAYOH 310083,1.335787912335,103.847991955582
REDWOOD CLINIC AND SURGERY PTE LTD,CHAS Clinic,920 TIONG BAHRU ROAD 158792,1.28963453428279,103.816740972072
REGIONAL PATIENTCARE MEDICAL GROUP PTE LTD (ADMIRALTY PLACE BRANCH),CHAS Clinic,678 WOODLANDS AVE 6 730678,1.43998366603242,103.801293104547
REGIONAL PATIENTCARE MEDICAL GROUP PTE LTD (YISHUN CENTRAL BRANCH),CHAS Clinic,932 YISHUN CENTRAL 1 760932,1.4263621765255,103.837150418545
ROCHOR CENTRE CLINIC,CHAS Clinic,175 BENCOOLEN STREET 189649,1.3022432705157,103.852700214599
ROCHOR MEDICAL CENTRE,CHAS Clinic,635 VEERASAMY ROAD 200635,1.30658850151817,103.855218715931
ROWELL CLINIC & SURGERY,CHAS Clinic,642 ROWELL ROAD 200642,1.3077805140901,103.856495249842
ROY'S FAMILY CLINIC & SURGERY,CHAS Clinic,846 YISHUN RING ROAD 760846,1.41678634673088,103.834641578841
ROYAL CARE MEDICAL FAMILY CLINIC CHOA CHU KANG,CHAS Clinic,818 CHOA CHU KANG AVENUE 1 680818,1.37802616205349,103.748826771213
ROYAL MEDICAL CENTRE,CHAS Clinic,111 WOODLANDS ST 13 730111,1.43794381737826,103.782059433299
RUBY MEDICAL CENTRE PTE LTD,CHAS Clinic,505 TAMPINES CENTRAL 1 520505,1.35554848228485,103.945616070638
Radiant Medical + Aesthetic Centre,CHAS Clinic,810 HOUGANG CENTRAL 530810,1.37158744039625,103.89336998978
RafflesMedical,CHAS Clinic,1 Woodlands Square 738099,1.43607006516889,103.785981524566
RafflesMedical,CHAS Clinic,55 SIGLAP ROAD 455871,1.31260423076805,103.923185592863
RafflesMedical,CHAS Clinic, SINGAPORE CHANGI INTERNEATIONAL 819642,1.36170882122938,103.990348823433
RafflesMedical,CHAS Clinic,283 BISHAN STREET 22 570283,1.35891907140489,103.844748631654
RafflesMedical,CHAS Clinic,252 North Bridge Road 179103,1.29376028146733,103.8527683243
OXFORD MEDICAL CENTRE,CHAS Clinic,735 PASIR RIS ST 72 510735,1.37966812078368,103.936574613556
Oasis Family Clinic,CHAS Clinic,56 NEW UPPER CHANGI ROAD 461056,1.32499379325103,103.941082588112
RafflesMedical,CHAS Clinic,50 RAFFLES PLACE 048623,1.28469772047007,103.852133221714
RafflesMedical,CHAS Clinic,51 ANSON ROAD 079904,1.2745218067199,103.845738587261
RafflesMedical,CHAS Clinic,6 Raffles Boulevard 039594,1.29157395675943,103.85702695548
RafflesMedical,CHAS Clinic,177 Toa Payoh Central 310177,1.33390034089973,103.848854818027
RafflesMedical,CHAS Clinic,168 ROBINSON ROAD 068912,1.27763073254434,103.847572724937
RafflesMedical,CHAS Clinic,370 ALEXANDRA ROAD 159953,1.28861469011507,103.805009964275
RafflesMedical,CHAS Clinic,65 Airport Boulevard Departure Hall 819663,1.35662609392547,103.98656220853
RafflesMedical,CHAS Clinic,1 MARITIME SQUARE 099253,1.26396991217473,103.820243324874
RafflesMedical,CHAS Clinic,391B ORCHARD RD 238874,1.30242417185937,103.834676124776
RafflesMedical,CHAS Clinic,10 TAMPINES CENTRAL 1 529536,1.35425637955977,103.945071748026
RafflesMedical,CHAS Clinic,355 SEMBAWANG WAY 750355,1.44954485606328,103.818727592719
RafflesMedical,CHAS Clinic,10E SIXTH AVENUE 276474,1.33123001007666,103.794773872292
RafflesMedical,CHAS Clinic,1 CHANGI BUSINESS PARK CRESCENT 486025,1.33335127296395,103.965668919257
RafflesMedical,CHAS Clinic,60 AIRPORT BOULEVARD 819643,1.35496948998212,103.989066655162
RafflesMedical,CHAS Clinic,23 SERANGOON CENTRAL 556083,1.35076935223904,103.872296143433
RafflesMedical,CHAS Clinic,8 MARINA VIEW 018960,1.27894102286765,103.851255907838
RafflesMedical,CHAS Clinic,5 CHANGI BUSINESS PARK CENTRAL 1 486038,1.33408360486513,103.962946072076
RafflesMedical,CHAS Clinic,80 ROBINSON ROAD 068898,1.2801374698432,103.849316412869
RafflesMedical,CHAS Clinic,1 PASIR RIS CENTRAL STREET 3 518457,1.37244981704712,103.949715695148
RafflesMedical,CHAS Clinic,1 JURONG WEST CENTRAL 2 648886,1.33945271688955,103.706685012636
RafflesMedical,CHAS Clinic,65 AIRPORT BOULEVARD 819663,1.35662609392547,103.98656220853
RafflesMedical,CHAS Clinic,21 CHOA CHU KANG NORTH 6 689578,1.39706712804272,103.746637430571
RafflesMedical,CHAS Clinic,12 MARINA BOULEVARD 018982,1.27912493803888,103.854457595507
RafflesMedical,CHAS Clinic,3 SIMEI STREET 6 528833,1.34270619638735,103.953024496638
RafflesMedical,CHAS Clinic,1 SCOTTS ROAD 228208,1.30611334615777,103.831970581405
RafflesMedical,CHAS Clinic,11 RIVERVALE CRESCENT 545082,1.39250411008759,103.904483668484
RafflesMedical,CHAS Clinic,83 PUNGGOL CENTRAL 828761,1.40648462103214,103.902105681174
RafflesMedical,CHAS Clinic,20 AIRPORT BOULEVARD 819659,1.34126241557138,103.98481125361
SUNBEAM MEDICAL CLINIC,CHAS Clinic,318B ANCHORVALE LINK 542318,1.39382852232708,103.888915861518
SUNBEAM MEDICAL CLINIC,CHAS Clinic,443C FAJAR ROAD 673443,1.38057053055556,103.769732692211
SUNNYVALE CLINIC & SURGERY,CHAS Clinic,498 JURONG WEST ST 41 640498,1.34833335721941,103.724307319672
Saint-Julien Clinic for Diabetes & Endocrinology,CHAS Clinic,1 FARRER PARK STATION ROAD 217562,1.31247324146379,103.853929522028
Sembawang Mart Medical Centre,CHAS Clinic,511 CANBERRA ROAD 750511,1.45381060923032,103.819619835472
Sengkang Family Clinic,CHAS Clinic,274D COMPASSVALE BOW 544274,1.38253437190713,103.891156696939
Senja Family Clinic,CHAS Clinic,609 Bukit Panjang Ring Road 670609,1.38285734133979,103.762010135614
Shenton Family Medical Clinic,CHAS Clinic,102 TOWNER ROAD 322102,1.32058609482407,103.862002015014
Shenton Medical Group,CHAS Clinic,1 HarbourFront Place 098633,1.26477806953607,103.819139250561
Shenton Medical Group,CHAS Clinic,1 Raffles Quay 048583,1.28118338740689,103.851899818693
Shenton Medical Group,CHAS Clinic,625 ELIAS ROAD 510625,1.37860239755804,103.941978174961
Shenton Medical Group,CHAS Clinic,333 ORCHARD ROAD 238867,1.30206450544267,103.836340953733
Shenton Medical Group,CHAS Clinic,10 SENGKANG CENTRAL 545061,1.3828700200017,103.893122570095
Shenton Medical Group,CHAS Clinic,2 CHANGI BUSINESS PARK AVENUE 1 486015,1.33587129987692,103.963121893503
Shenton Medical Group,CHAS Clinic,90 BRAS BASAH ROAD 189562,1.2934030717761,103.854463360255
Shenton Medical Group,CHAS Clinic,30 WOODLANDS AVENUE 2 738343,1.43681962960776,103.786066799339
Shenton Medical Group,CHAS Clinic,263 SERANGOON CENTRAL DRIVE 550263,1.35386322682384,103.871939623607
Shenton Medical Group,CHAS Clinic,126 LORONG 1 TOA PAYOH 310126,1.33781465664298,103.845130852041
Shenton Medical Group,CHAS Clinic,598 YISHUN RING ROAD 768698,1.41795288509924,103.841268831273
Shenton Medical Group,CHAS Clinic,33 SENGKANG WEST AVENUE 797653,1.39147015412078,103.876125506847
Shenton Wellness Centre,CHAS Clinic,460 ALEXANDRA ROAD 119963,1.27398640019417,103.801264139133
Shifa Clinic (Jurong),CHAS Clinic,501 Jurong West Street 51 640501,1.34981225393483,103.719222201398
Shine Family Clinic,CHAS Clinic,463 JURONG WEST STREET 41 640463,1.35057698682517,103.723241115985
Sia & Yeo Hougang Clinic Pte Ltd,CHAS Clinic,573 Hougang Street 51 530573,1.37755651165883,103.88755572228
Silver Cross Medical,CHAS Clinic,502 Jurong West Ave 1 640502,1.3505012764805,103.718334683532
Spring Medical Clinic (Old Airport Road),CHAS Clinic,39 Jalan Tiga 390039,1.30782060284175,103.885092299821
St Georges Clinic And Surgery Pte Ltd,CHAS Clinic,3 ST GEORGE'S RD 320003,1.32258735163112,103.861107276896
RafflesMedical,CHAS Clinic,118 Holland Avenue 278997,1.31056351487197,103.796107173265
RafflesMedical,CHAS Clinic,1 SENGKANG SQUARE 545078,1.39205314124118,103.895070543472
RafflesMedical,CHAS Clinic,1207 DOVER ROAD 139654,1.30302017269004,103.77516050407
RafflesMedical,CHAS Clinic,1 TAMPINES STREET 73 528704,1.35809100033282,103.93129218129
RafflesMedical,CHAS Clinic,930 YISHUN AVENUE 2 769098,1.4296984860254,103.835776491296
RafflesMedical,CHAS Clinic,10 AIRPORT BOULEVARD 819665,1.33814521631176,103.983635708359
Red Dot Medical,CHAS Clinic,660A EDGEDALE PLAINS 821660,1.40262197324413,103.916519598746
Ren Medical Clinic,CHAS Clinic,101 Yishun Avenue 5 760101,1.43053575388582,103.827667722133
Reservoir Road Clinic & Surgery,CHAS Clinic,704 Bedok Reservoir Road 470704,1.33635490585941,103.920203566195
River of Life Family Clinic,CHAS Clinic,26 TECK WHYE LANE 680026,1.3776211236711,103.755740001423
Rivervale Family Clinic & Surgery,CHAS Clinic,118 RIVERVALE DRIVE 540118,1.38533736141014,103.901841043722
Royal Care Medical Yishun Grove,CHAS Clinic,675 YISHUN AVENUE 4 760675,1.42015550948838,103.843558885887
Royal Care Medical Yishun Junction 9,CHAS Clinic,317 YISHUN AVENUE 9 760317,1.43377281319948,103.842276902055
S & L FAMILY CLINIC,CHAS Clinic,729 YISHUN ST 71 760729,1.42585285580125,103.831598307398
S AND L FAMILY CLINIC,CHAS Clinic,235 YISHUN ST 21 760235,1.43422889275473,103.838543994101
S G CLINIC FAMILY PRACTICE,CHAS Clinic,84 SERANGOON GARDEN WAY 555980,1.36435938121985,103.86498913644
S K TAY CLINIC & SURGERY,CHAS Clinic,827 TAMPINES ST 81 520827,1.34972149524439,103.933719246548
S LEE CLINIC,CHAS Clinic,644 HOUGANG AVE 8 530644,1.37143736473082,103.881261079223
S S TAN MEDICAL CLINIC,CHAS Clinic,744 YISHUN ST 72 760744,1.42934172925754,103.834049245981
S T MEDICAL CENTRE,CHAS Clinic,95 ALJUNIED CRESCENT 380095,1.32170328990751,103.886195689055
S Y LEE CLINIC,CHAS Clinic,400 BALESTIER ROAD 329802,1.32572472592378,103.850395374008
S. T. MEDICAL CLINIC,CHAS Clinic,531 BEDOK NORTH ST. 3 460531,1.33312991887095,103.926153139378
SAINT-JULIEN CLINIC FOR DIABETES & ENDOCRINOLOGY,CHAS Clinic,820 THOMSON ROAD 574623,1.34182282585918,103.837601167324
SATA CommHealth Community Hub,CHAS Clinic,447B JALAN KAYU 792447,1.39246632893681,103.873207670164
SATA CommHealth Medical Centre,CHAS Clinic,135 Jurong Gateway Road 600135,1.33382540751653,103.739676885463
SATA CommHealth Medical Centre,CHAS Clinic,351 CHAI CHEE STREET 468982,1.32774293711146,103.921391376569
SATA CommHealth Medical Centre,CHAS Clinic,900 SOUTH WOODLANDS DR 730900,1.43501829556388,103.786930895563
SATA CommHealth Medical Centre,CHAS Clinic,715 ANG MO KIO AVENUE 6 560715,1.37099726405562,103.845927987274
SATA CommHealth Medical Centre,CHAS Clinic,5 TAMPINES CENTRAL 6 529482,1.35344127649824,103.942027827131
SATA CommHealth Medical Centre,CHAS Clinic,1 SIANG KUANG AVENUE 347919,1.32915444536368,103.869979972572
SATA CommHealth Medical Centre,CHAS Clinic,500 CORPORATION ROAD 649808,1.34542200611767,103.716518474795
SEASONS CLINIC,CHAS Clinic,844 TAMPINES ST 82 520844,1.35210583556431,103.936530873297
SENNETT MEDICAL CLINIC,CHAS Clinic,55 SIGLAP ROAD 455871,1.31260423076805,103.923185592863
SH TAN KIDNEY AND MEDICAL CLINIC,CHAS Clinic,6 NAPIER ROAD 258499,1.30706156424643,103.820124456725
SHALOM CLINIC & SURGERY,CHAS Clinic,123 BT MERAH LANE 1 150123,1.28685131584493,103.804019034887
SHALOM MEDICAL GROUP,CHAS Clinic,231 BAIN STREET 180231,1.29681525968455,103.853619482439
SHENTON CLINIC,CHAS Clinic,498 JURONG WEST ST 41 640498,1.34833335721941,103.724307319672
SHENTON FAMILY MEDICAL CLINIC,CHAS Clinic,131 JURONG GATEWAY ROAD 600131,1.33451257366884,103.740177518805
SHENTON FAMILY MEDICAL CLINIC,CHAS Clinic,728 ANG MO KIO AVENUE 6 560728,1.37262841649544,103.845682929328
SHENTON FAMILY MEDICAL CLINIC,CHAS Clinic,1 CANTONMENT ROAD 080001,1.27703474364687,103.841261035114
SHENTON FAMILY MEDICAL CLINIC (BEDOK RESERVOIR),CHAS Clinic,744 BEDOK RESERVOIR ROAD 470744,1.33786042599072,103.921663304271
SHENTON FAMILY MEDICAL CLINIC (TAMPINES),CHAS Clinic,201D Tampines Street 21 524201,1.35226231434834,103.953586491461
SHENTON MEDICAL GROUP,CHAS Clinic,10 ANSON RD 079903,1.27588674304532,103.84592379296
SHENTON MEDICAL GROUP,CHAS Clinic,160 Yishun Street 11 760160,1.43241454599015,103.833344538803
SHENTON MEDICAL GROUP,CHAS Clinic,11 COLLYER QUAY 049317,1.28361958417727,103.85206894582
SHENTON MEDICAL GROUP,CHAS Clinic,26 Sentosa Gateway 098138,1.2570386443268,103.822038714188
SHENTON MEDICAL GROUP,CHAS Clinic,168 KALLANG WAY LEVEL 1 349253,1.32529543334089,103.875061735482
SHENTON MEDICAL GROUP,CHAS Clinic,8A MARINA BOULEVARD 018984,1.27972491465308,103.854548750789
SHENTON MEDICAL GROUP,CHAS Clinic,1 JURONG WEST CENTRAL 2 648886,1.33945271688955,103.706685012636
SHERATON MEDICAL CLINIC,CHAS Clinic,681 HOUGANG AVE 8 530681,1.37297840263115,103.885679159796
SHIFA CLINIC & SURGERY,CHAS Clinic,668 CHANDER RD 210668,1.30758123998287,103.851478219833
SIA FAMILY CLINIC AND SURGERY,CHAS Clinic,10 HAIG RD 430010,1.31483950172833,103.895865169689
SIGLAP CLINIC PTE LTD,CHAS Clinic,308 TELOK KURAU ROAD 423858,1.30948276291967,103.911720115565
SILVER CROSS CLINIC (MARSILING),CHAS Clinic,305 WOODLANDS STREET 31 730305,1.43036145793777,103.774102413755
SILVER CROSS MEDICAL,CHAS Clinic,846 YISHUN RING ROAD 760846,1.41678634673088,103.834641578841
SILVER CROSS MEDICAL,CHAS Clinic,275A HOLLAND AVENUE 278993,1.31177848862859,103.795257905208
SILVER CROSS MEDICAL,CHAS Clinic,3 CHEONG CHIN NAM ROAD 599728,1.34235676021944,103.775277106211
SIMEI CLINIC & SURGERY,CHAS Clinic,248 SIMEI ST 3 520248,1.34359376286677,103.953541142784
SIMEI MEDICAL CENTRE,CHAS Clinic,248 SIMEI ST 3 520248,1.34359376286677,103.953541142784
SIMON ROAD FAMILY CLINIC,CHAS Clinic,9 SIMON ROAD 545895,1.3617743634574,103.885935907258
SIMS DRIVE MEDICAL CLINIC,CHAS Clinic,53 SIMS PLACE 380053,1.31782374725095,103.880077585336
SINCERE MEDICAL & DENTAL CLINIC,CHAS Clinic,292 YISHUN ST 22 760292,1.43672478429336,103.836966390664
SINGAPORE AEROMEDICAL CENTRE,CHAS Clinic,492 AIRPORT ROAD 539945,1.34363607889026,103.900280919801
SINGAPORE TECHNOLOGIES ELECTRONICS LIMITED (IN-HOUSE MEDICAL CLINIC),CHAS Clinic,24 ANG MO KIO ST 65 569061,1.39160303137082,103.849272321026
SINGAPORE TELECOM CLINIC,CHAS Clinic,31 EXETER ROAD 239732,1.29883731525061,103.838824144408
SINGAPURA CLINIC,CHAS Clinic,27 BENCOOLEN ST 189620,1.29884587563078,103.849843766758
SM HANEEFA CLINIC,CHAS Clinic,11 CHAI CHEE ROAD 460011,1.32691137477773,103.92488389348
SOONG CLINIC AND SURGERY,CHAS Clinic,162 MEI LING ST 140162,1.2922546717017,103.802856952292
SP CLINIC,CHAS Clinic,117 PENDING RD 670117,1.37730128054995,103.767979335898
ST ANDREW'S MISSION HOSPITAL CLINIC (ELLIOT ROAD),CHAS Clinic,1 ELLIOT ROAD 458686,1.31075791672664,103.929750021328
ST ANDREW'S MISSION HOSPITAL CLINIC (SIMEI),CHAS Clinic,8 SIMEI STREET 3 529895,1.34168650589195,103.948799458403
ST Engineering In-house Clinic (Changi),CHAS Clinic,8 CHANGI NORTH WAY 499611,1.35064916412837,103.972325551213
ST Engineering In-house Clinic (Jalan Boon Lay),CHAS Clinic,249 JALAN BOON LAY 619523,1.33948085341025,103.712432335887
ST Engineering In-house Clinic (Paya Lebar),CHAS Clinic,"540 AIRPORT RD, PAYA LEBAR 539938",1.35004734926347,103.896796279931
ST Engineering In-house Clinic (Seletar),CHAS Clinic,600 WEST CAMP ROAD 797654,1.41690177900939,103.862850399796
STARCARE CLINIC AND SURGERY  PTE. LTD.,CHAS Clinic,207 BUKIT BATOK ST 21 650207,1.3462486617594,103.749382188619
STAT MEDICAL CLINIC,CHAS Clinic,2 SELETAR NORTH LINK 797601,1.41690780081278,103.896018765382
STAT MEDICAL CLINIC @ HOUGANG,CHAS Clinic,311 HOUGANG AVENUE 5 530311,1.36566733051337,103.894853675365
STERLING CLINIC & SURGERY,CHAS Clinic,3 LOR LEW LIAN 531003,1.35047535988667,103.876132956821
STERLING FAMILY CLINIC,CHAS Clinic,84 BEDOK NORTH ST 4 460084,1.33178245042997,103.939208398887
STEWARD CLINIC,CHAS Clinic,4A LOYANG LANE 508923,1.37149482514443,103.970463664726
STREET 11 CLINIC,CHAS Clinic,139 TAMPINES ST 11 521139,1.3461607395066,103.944509227628
STREET 21 CLINIC TAMPINES PTE. LTD.,CHAS Clinic,201B TAMPINES ST 21 522201,1.35345315773106,103.953009919289
SUMMIT MEDICAL CLINIC,CHAS Clinic,632 ANG MO KIO AVE 4 560632,1.37992681961038,103.841432372506
Platinum Medical Centre @Dorm,CHAS Clinic,28 TOH GUAN ROAD EAST 608596,1.33649931574899,103.751872040865
Platinum Medical Centre pte ltd,CHAS Clinic,504 YISHUN STREET 51 760504,1.41840135619382,103.844582117379
Potong Pasir Medical Clinic,CHAS Clinic,148 POTONG PASIR AVENUE 1 350148,1.3323543600733,103.867774260572
Pristine Medical Clinic,CHAS Clinic,463 JURONG WEST STREET 41 640463,1.35057698682517,103.723241115985
Prive Clinic,CHAS Clinic,390 ORCHARD ROAD 238871,1.30665484568371,103.82958804502
ProHealth Medical Group @Fernvale,CHAS Clinic,33 SENGKANG WEST AVENUE 797653,1.39147015412078,103.876125506847
ProHealth Medical Group @Hougang,CHAS Clinic,476D UPPER SERANGOON VIEW 537476,1.37791506095757,103.903623796172
ProHealth Medical Group @Punggol Damai,CHAS Clinic,612 PUNGGOL DRIVE 820612,1.40461003130726,103.908665597742
ProHealth Medical Group @Taman Jurong Pte Ltd,CHAS Clinic,399 YUNG SHENG ROAD 610399,1.33484487386451,103.720462024234
Procross Medical Center,CHAS Clinic,51 UPPER SERANGOON ROAD 347697,1.33149708060439,103.868214025397
Procross Medical Clinic,CHAS Clinic,689A WOODLANDS DRIVE 75 731689,1.44438629268513,103.807925410056
Prohealth Medical Group @Punggol Spectra Pte. Ltd.,CHAS Clinic,622D PUNGGOL CENTRAL 824622,1.40053114978911,103.910536918863
Providence Clinic @ Hillford,CHAS Clinic,182 JALAN JURONG KECHIL 596152,1.34404337277176,103.769543941461
Providence Clinic @ Redhill,CHAS Clinic,86 REDHILL CLOSE 150086,1.2869200625471,103.818673591845
Providence Medical Centre Pte. Ltd.,CHAS Clinic,8 CROSS STREET 048424,1.28240746012436,103.849023724329
Providence Orthopaedics,CHAS Clinic,38 IRRAWADDY ROAD 329563,1.32214005414322,103.844212383776
Prudence Family Clinic,CHAS Clinic,512 BISHAN STREET 13 570512,1.34962234945727,103.849881703096
Punggol Ripples Family Clinic,CHAS Clinic,211D PUNGGOL WALK 824211,1.40093563181012,103.899198537951
Q & M MEDICAL & AESTHETIC CLINIC (FARRER PARK),CHAS Clinic,180 KITCHENER ROAD 208539,1.31142103101451,103.856624020172
Q & M MEDICAL & AESTHETIC CLINIC (TAMPINES CENTRAL) PTE. LTD.,CHAS Clinic,10 TAMPINES CENTRAL 1 529536,1.35425637955977,103.945071748026
Q & M MEDICAL CLINIC (BUANGKOK MRT) PTE. LTD.,CHAS Clinic,10 SENGKANG CENTRAL 545061,1.3828700200017,103.893122570095
Q & M MUTUAL HEALTHCARE MEDICAL CLINIC,CHAS Clinic,70 PUNGGOL CENTRAL 828868,1.40454653696814,103.902072622227
Q & M Medical Clinic (Bukit Batok),CHAS Clinic,151 BT BATOK ST 11 650151,1.34874703498808,103.744211484368
Q & M Medical Family Clinic,CHAS Clinic,261 SERANGOON CENTRAL DRIVE 550261,1.35405255235679,103.872524450893
iDOC Clinic,CHAS Clinic,21 HOUGANG STREET 51 538719,1.37924529078289,103.88783201701
iPCARE Clinic,CHAS Clinic,5 LORONG NAPIRI 547530,1.37203701009684,103.87803114664
my clinic,CHAS Clinic,9 KING ALBERT PARK 598332,1.33684217571663,103.779313810092
saudara clinic by A+J general physicians,CHAS Clinic,228 CHANGI ROAD 419741,1.31724236488417,103.904690339985
St. Luke's Community Clinic,CHAS Clinic,2 BUKIT BATOK STREET 11 659674,1.3496004115257,103.742182351689
Standard Clinic & Surgery,CHAS Clinic,261 PUNGGOL WAY 820261,1.40541353684327,103.896823893769
Sunshine Clinic Family Practice & Surgery,CHAS Clinic,445 TAMPINES STREET 42 520445,1.35830242158699,103.950658404772
Sunway Medical Centre,CHAS Clinic,101 IRRAWADDY ROAD 329565,1.32047597480701,103.843252763122
Swiss Clinic,CHAS Clinic,1 FIFTH AVENUE 268802,1.33081740087421,103.795692352825
T MEDICAL CLINIC (CITY GATE),CHAS Clinic,371 BEACH ROAD 199597,1.30231590472988,103.862331661469
T MEDICAL CLINIC (KALLANG),CHAS Clinic,5 UPPER BOON KENG ROAD 380005,1.31264014487988,103.872491873232
T Medical Clinic,CHAS Clinic,115 CANBERRA WALK 750115,1.44608188224878,103.828739863128
T S WONG CLINIC & SURGERY,CHAS Clinic,166 WOODLANDS ST 13 730166,1.43331773798557,103.775491556251
TAI SENG CLINIC,CHAS Clinic,11 IRVING PLACE 369551,1.33637945088224,103.887216149787
TAMPINES CLINIC AND SURGERY PTE LTD,CHAS Clinic,139 TAMPINES ST 11 521139,1.3461607395066,103.944509227628
TAMPINES MEDILIFE CLINIC,CHAS Clinic,801 TAMPINES AVE 4 520801,1.34719233083684,103.938014036838
TAN & KOH CLINIC & SURGERY,CHAS Clinic,121 Bedok Reservoir Rd 470121,1.3313051776693,103.909992224751
TAN LEE CLINIC & SURGERY,CHAS Clinic,446 PASIR RIS DR 6 510446,1.37030619330386,103.957726864829
TAN MEDICAL CLINIC PTE LTD,CHAS Clinic,339 ANG MO KIO AVE 1 560339,1.36506492203815,103.849115818814
TAN MEDICARE CLINIC PTE LTD,CHAS Clinic,629 ANG MO KIO AVE 4 560629,1.38010475022238,103.840408652686
TAN'S T & T CLINIC AND SURGERY,CHAS Clinic,152 BISHAN STREET 11 570152,1.34565720338064,103.854641447659
TAN-TEOH CLINIC & SURGERY,CHAS Clinic,101 TOWNER RD 322101,1.31942539044681,103.861087462865
TAN-TEOH CLINIC & SURGERY,CHAS Clinic,101 TOWNER ROAD 322101,1.31942539044681,103.861087462865
TAN-TEOH CLINIC & SURGERY (ANG MO KIO BRANCH),CHAS Clinic,302 ANG MO KIO AVE 3 560302,1.36708983210487,103.845660198618
TANJONG PAGAR MEDICAL CLINIC,CHAS Clinic,1 TANJONG PAGAR PLAZA 082001,1.27568702794453,103.842433596845
TAY CLINIC,CHAS Clinic,494 GEYLANG RD 389452,1.31332659768711,103.885031221639
TAY MEDICAL CENTRE,CHAS Clinic,6 HOLLAND CLOSE 271006,1.30711568648359,103.795264616726
TC FAMILY CLINIC PTE LTD,CHAS Clinic,526 JURONG WEST ST 52 640526,1.34767189579547,103.717048366415
Vitacare Family Clinic@Seletar Pte.Ltd.,CHAS Clinic,417 FERNVALE LINK 790417,1.39158623013568,103.879874611056
Vital-Care Clinic and Surgery Pte Ltd,CHAS Clinic,525 ANG MO KIO AVENUE 10 560525,1.37262666866782,103.853976743936
Viva Medical Clinic,CHAS Clinic,450A Tampines Street 42 521450,1.35836068994646,103.952252183693
Viva Medical Group,CHAS Clinic,519A TAMPINES CENTRAL 8 521519,1.35727594434997,103.94038160042
TEBAN GARDEN CLINIC,CHAS Clinic,61 TEBAN GARDENS RD 600061,1.32213636288697,103.738292803759
TEH'S CLINIC & SURGERY,CHAS Clinic,64 CIRCUIT ROAD 370064,1.32698404465594,103.887148432888
TEIN CLINIC & SURGERY,CHAS Clinic,124 HOUGANG AVE 1 530124,1.3528926150549,103.886655349854
TEK DISPENSARY,CHAS Clinic,4 TOA PAYOH LOR 7 310004,1.33904479825361,103.855541063592
TEMASEK CLINIC & SURGERY,CHAS Clinic,73 BEDOK SOUTH AVENUE 3 460073,1.3198380312489,103.943971359098
TEMASEK MEDICAL CENTRE,CHAS Clinic,883 WOODLANDS ST 82 730883,1.44275333234585,103.790548015767
TEMASEK MEDICAL CENTRE,CHAS Clinic,624 CHOA CHU KANG ST 62 680624,1.3980473611046,103.747084778715
TEMASEK MEDICAL CENTRE,CHAS Clinic,406 SEMBAWANG DRIVE 750406,1.45292980559221,103.816977584507
TEMASEK MEDICAL CENTRE,CHAS Clinic,413 BUKIT BATOK WEST AVE 4 650413,1.36356572652377,103.746596967414
TEMASEK MEDICAL CLINIC,CHAS Clinic,212 TOA PAYOH LOR 8 310212,1.34064293669732,103.854334496723
TEMASEK MEDICAL CLINIC,CHAS Clinic,86 BEDOK NORTH ST 4 460086,1.33254084334528,103.938989345549
TENG CLINIC,CHAS Clinic,171 STIRLING ROAD 140171,1.29073246215042,103.803846935065
TEO CLINIC & SURGERY PTE LTD,CHAS Clinic,352 CLEMENTI AVE 2 120352,1.31427860262492,103.771350557955
TEOH CLINIC FAMILY PRACTICE,CHAS Clinic,47 LORONG 6 TOA PAYOH 310047,1.3369102979863,103.854030352437
TEXTILE CENTRE CLINIC,CHAS Clinic,200 JLN SULTAN 199018,1.30393835652833,103.861630792348
TH Chia Medical Practice,CHAS Clinic,151 SERANGOON NORTH AVENUE 2 550151,1.36934534973621,103.873778334173
THAI SHEN FAMILY CLINIC PTE LTD,CHAS Clinic,84 BEDOK NORTH ST 4 460084,1.33178245042997,103.939208398887
THE BALMORAL CLINIC,CHAS Clinic,5 STADIUM WALK 397693,1.30230108382985,103.876473975459
THE BALMORAL CLINIC  FAMILY MEDICINE,CHAS Clinic,271 BUKIT TIMAH RD 259708,1.31643962977729,103.835487584763
THE BISHAN FAMILY DOCTORS,CHAS Clinic,283 BISHAN ST 22 570283,1.35891907140489,103.844748631654
THE CHELSEA CLINIC (ROCHESTER),CHAS Clinic,35 ROCHESTER DRIVE 138639,1.30541103558597,103.788371152095
THE CHUNGKIAW FAMILY PRACTICE PTE LTD,CHAS Clinic,17 ANG MO KIO AVE 9 569766,1.38403248453043,103.840356912641
THE CIVIC CLINIC,CHAS Clinic,537 BEDOK NORTH ST 3 460537,1.33177300798251,103.924236461317
THE CLINIC @ ONE GEORGE STREET,CHAS Clinic,1 GEORGE STREET 049145,1.2856940848176,103.847819970393
THE CLINIQ,CHAS Clinic,590A MONTREAL LINK 751590,1.45035573243813,103.826654919933
THE CORONATION CLINIC,CHAS Clinic,587 BUKIT TIMAH ROAD 269707,1.32383512138206,103.809999570462
THE DOCTOR'S CLINIC,CHAS Clinic,429 JURONG WEST AVE 1 640429,1.3519251312171,103.724496794909
THE EDINBURGH CLINIC,CHAS Clinic,306 CHOA CHU KANG AVE 4 680306,1.3849567248116,103.742877957315
THE FAHRENHEIT MEDICAL CENTRE,CHAS Clinic,218 BEDOK NORTH STREET 1 460218,1.32749295502142,103.934249434387
THE FAMILY MEDICAL CENTRE (YISHUN) PTE. LTD.,CHAS Clinic,411 YISHUN RING ROAD 760411,1.42574178896438,103.847404278661
THE FAMILY PRACTICE CLINIC & SURGERY,CHAS Clinic,117 COMMONWEALTH DR 140117,1.30659244995571,103.800270024775
THE FAMILY PRACTICE-POTONG PASIR,CHAS Clinic,148 POTONG PASIR AVE 1 350148,1.3323543600733,103.867774260572
THE FLAME TREE MEDICAL CENTRE,CHAS Clinic,225 UPPER THOMSON ROAD 574357,1.35276828454393,103.834434648473
THE HEALER CLINIC + SURGERY,CHAS Clinic,154 SERANGOON NORTH AVENUE 1 550154,1.37012983432538,103.873115537646
THE MEDICAL AND AESTHETIC CLINIC PTE LTD,CHAS Clinic,270 SIMS AVENUE 387514,1.31503870948871,103.883265346401
THE OLIVE TREE FAMILY CLINIC & SURGERY PTE. LTD.,CHAS Clinic,303 ANCHORVALE LINK 540303,1.3873819457872,103.890606111941
THE PEOPLE'S CLINIC,CHAS Clinic,145 TECK WHYE AVE 680145,1.38150500405147,103.75246691105
THOMAS CLINIC & SURGERY,CHAS Clinic,61 TELOK BLANGAH HEIGHTS 100061,1.2757050081363,103.812007084733
TIONG BAHRU MEDICAL CENTRE,CHAS Clinic,10 KIM TIAN ROAD 169248,1.28503456963472,103.829293518372
TOH GUAN FAMILY CLINIC,CHAS Clinic,267A TOH GUAN ROAD 601267,1.34155988951414,103.744937236151
TOWN CLINIC,CHAS Clinic,287 BEACH ROAD 199551,1.30097707775176,103.860481764343
TOWN HALL CLINIC PTE LTD,CHAS Clinic,438C ALEXANDRA ROAD 119976,1.27749904111234,103.800215758169
TP SIM FAMILY CLINIC & SURGERY,CHAS Clinic,509 BISHAN STREET 11 570509,1.34862997259882,103.849571983466
TPC Medical Clinic,CHAS Clinic,7 WALLICH STREET 078884,1.27672492662156,103.845155395288
TRINITY MEDICAL (PUNGGOL),CHAS Clinic,273C PUNGGOL PLACE 823273,1.4023030133944,103.901262391636
TRUE MEDICAL CLINIC PAYA LEBAR QUARTER,CHAS Clinic,10 PAYA LEBAR ROAD 409057,1.31756115896992,103.892836694638
TRUE MEDICAL CLINIC TAMPINES WEST,CHAS Clinic,824 TAMPINES STREET 81 520824,1.34903743492173,103.932714940567
TSI & PARTNERS FAMILY CLINIC,CHAS Clinic,151 Serangoon North Avenue 2 550151,1.36934534973621,103.873778334173
TWIN CITY MEDICAL CENTRE,CHAS Clinic,1 KIM SENG PROMENADE 237994,1.29342273673818,103.832022135805
TWIN CITY MEDICAL PRACTICE,CHAS Clinic,391B ORCHARD ROAD 238874,1.30242417185937,103.834676124776
Tampines Family Medicine Clinic,CHAS Clinic,1 Tampines Walk 528523,1.35313359794721,103.940408135516
Tampines Medical Centre,CHAS Clinic,267 Tampines Street 21 520267,1.3507727878183,103.949259231371
Tampines West Medical Clinic,CHAS Clinic,801 TAMPINES AVENUE 4 520801,1.34719233083684,103.938014036838
Tan & Yik Clinic & Surgery,CHAS Clinic,116 Bishan Street 12 570116,1.34780072006666,103.849316086331
Tay Clinic,CHAS Clinic,117 BEDOK RESERVOIR ROAD 470117,1.33141324887407,103.908688936297
Tayka Medical,CHAS Clinic,29A DESKER ROAD 209562,1.30946144037683,103.854887502669
Tayka Medical Family Clinic,CHAS Clinic,526 JURONG WEST STREET 52 640526,1.34767189579547,103.717048366415
Teck Ghee Clinic (Dr Tan Yang Khai) Pte Ltd,CHAS Clinic,451 ANG MO KIO AVENUE 10 560451,1.36879314161118,103.855527833275
The Chong Family Clinic Pte Ltd,CHAS Clinic,442 CLEMENTI AVENUE 3 120442,1.31412254189651,103.764518593859
The Clinic @ Aperia,CHAS Clinic,12 KALLANG AVENUE 339511,1.30971120681481,103.864326436374
The Clinic @ Business City,CHAS Clinic,20 PASIR PANJANG ROAD 117439,1.27482749248458,103.799064823374
The Clinic @ Campus,CHAS Clinic,70 STAMFORD ROAD 178901,1.29665679202142,103.850105818253
The Clinic @ Capitagreen,CHAS Clinic,138 MARKET STREET 048946,1.28185803631837,103.850083822226
The Clinic @ Tai Seng,CHAS Clinic,18 TAI SENG STREET 539775,1.33631557485623,103.888825620541
The Clinic Group @ Marina One,CHAS Clinic,5 STRAITS VIEW 018935,1.27737235048624,103.852844801568
The Clinic@Fusionopolis,CHAS Clinic,1 FUSIONOPOLIS PLACE 138522,1.29986251393975,103.788101008635
The Dublin Clinic,CHAS Clinic,109 CLEMENTI STREET 11 120109,1.32198067676568,103.770776117109
The Family Clinic @ Towner,CHAS Clinic,101 Towner Road 322101,1.31942539044681,103.861087462865
The Family Physician Clinic,CHAS Clinic,542B SERANGOON NORTH AVENUE 3 552542,1.37368392969698,103.871416978846
The Family Practice@ Skyville,CHAS Clinic,85 DAWSON ROAD 141085,1.29531966312279,103.809758591462
The Good Life Medical Center,CHAS Clinic,820 THOMSON ROAD 574623,1.34182282585918,103.837601167324
The Heart Doctors Clinic,CHAS Clinic,820 THOMSON ROAD 574623,1.34182282585918,103.837601167324
The Pinnacle Medical Centre @ Maritime,CHAS Clinic,120 CANTONMENT ROAD 089760,1.27661793625795,103.840350063969
The Singapore Clinic for Kidney Diseases (Pte Ltd),CHAS Clinic,3 MOUNT ELIZABETH 228510,1.30516521414744,103.83543933754
The Tenteram Clinic,CHAS Clinic,116B JALAN TENTERAM 322116,1.32754908036765,103.860807411655
The iClinic,CHAS Clinic,18 JALAN MEMBINA 164018,1.28569742860668,103.826785447839
Tng Family Clinic,CHAS Clinic,347 Ang Mo Kio Ave 3 560347,1.36733858326108,103.848576334379
Tong Clinic & Surgery,CHAS Clinic,316B ANG MO KIO STREET 31 563316,1.36462540282437,103.847677034523
Trinity Medical & Aesthetic Clinic,CHAS Clinic,151 Simei Street 1 520151,1.34575482690831,103.957268859362
Trinity Medical (Shenton),CHAS Clinic,6 SHENTON WAY 068809,1.27698070731049,103.848408631153
Trinity Medical Centre (Marine Parade),CHAS Clinic,87 MARINE PARADE CENTRAL 440087,1.30245317778498,103.905639343356
Trinity Medical Clinic,CHAS Clinic,19A DOVER CRESCENT 131019,1.30735380274195,103.784548440285
Trinity Medical Clinic,CHAS Clinic,130 Jurong Gateway Road 600130,1.33472490438698,103.739321261292
Trucare Medical And Surgery,CHAS Clinic,1187 UPPER SERANGOON ROAD 533971,1.37050445532031,103.895291518123
Trucare Medical And Surgery,CHAS Clinic,226A ANG MO KIO AVENUE 1 561226,1.3674945803507,103.839283930976
TrueCare Clinic,CHAS Clinic,88 RANGOON ROAD 218374,1.31438189327845,103.854233088533
Tzu Chi Free Clinic (Singapore),CHAS Clinic,90 Redhill Close 150090,1.28499476970056,103.818758492368
UBI FAMILY CLINIC & SURGERY,CHAS Clinic,305 UBI AVENUE 1 400305,1.32942111198195,103.902317496825
UNICARE FAMILY CLINIC & SURGERY,CHAS Clinic,216 BOON LAY AVENUE 640216,1.34967447000568,103.711680539551
UNICARE FAMILY CLINIC & SURGERY,CHAS Clinic,175 BOON LAY DRIVE 640175,1.34668916700238,103.709485323871
UNIHEALTH 24-HR CLINIC (TOA PAYOH),CHAS Clinic,178 TOA PAYOH CENTRAL 310178,1.33358025833851,103.849264521174
UNION MEDICAL CLINIC & SURGERY,CHAS Clinic,152 SERANGOON NORTH AVE 1 550152,1.36934726838417,103.872613997797
UNITED HEALTH FAMILY CLINIC & SURGERY,CHAS Clinic,627 YISHUN STREET 61 760627,1.41770409901142,103.837005089082
UNITED MEDICAL CLINIC,CHAS Clinic,25 JLN BERSEH 200025,1.30621516431413,103.858221510781
UNITED MEDICAL PRACTITIONERS,CHAS Clinic,201B TAMPINES ST 21 522201,1.35345315773106,103.953009919289
UNIVERSAL MEDICAL CLINIC,CHAS Clinic,103 YISHUN RING ROAD 760103,1.43136934942161,103.828892847597
UNIVERSAL MEDICAL CLINIC,CHAS Clinic,201E TAMPINES ST 23 527201,1.35292162528847,103.953858335358
UNIVERSAL MEDICAL CLINIC,CHAS Clinic,235 YISHUN ST 21 760235,1.43422889275473,103.838543994101
UNIVERSAL MEDICAL CLINIC,CHAS Clinic,164 BUKIT BATOK ST 11 650164,1.34771697452787,103.742831711196
USRAH MEDICAL CLINIC,CHAS Clinic,510 BEDOK NORTH ST 3 460510,1.33212313297783,103.931051496618
Unihealth Clinic (Bedok),CHAS Clinic,214 BEDOK NORTH STREET 1 460214,1.32587565153874,103.932493034946
United Medical Practitioners,CHAS Clinic,139 TAMPINES STREET 11 521139,1.3461607395066,103.944509227628
Urban Medical Centre,CHAS Clinic,108 ROBINSON ROAD 068900,1.27954844736202,103.848970997812
VERNON CLINIC & SURGERY,CHAS Clinic,100 JALAN SULTAN 199001,1.30294528655395,103.861851786725
VICTORY CLINIC AND SURGERY,CHAS Clinic,21 GHIM MOH ROAD 270021,1.31010302628844,103.788545950367
VISTA MEDICAL CENTRE,CHAS Clinic,3 SOUTH BUONA VISTA ROAD 118136,1.27980322341195,103.785909603082
VITACARE FAMILY CLINIC @ CANBERRA PTE. LTD.,CHAS Clinic,361 SEMBAWANG CRESCENT 750361,1.44631506786133,103.813936814037
Victor's Family Clinic,CHAS Clinic,168 LORONG 1 TOA PAYOH 310168,1.33176643075075,103.843423249834
Victoria Medical House,CHAS Clinic,888 WOODLANDS DRIVE 50 730888,1.43712301469225,103.79531438351
Vitacare Family Clinic (Punggol Central),CHAS Clinic,622D PUNGGOL CENTRAL 824622,1.40053114978911,103.910536918863
Vitacare Family Clinic@Punggol West Pte Ltd,CHAS Clinic,218 SUMANG WALK 820218,1.40322712503317,103.895387022161
RafflesMedical,CHAS Clinic,259 PASIR RIS STREET 21 510259,1.36645364049074,103.964598499537
RafflesMedical,CHAS Clinic,131 Jurong Gateway Road 600131,1.33451257366884,103.740177518805
RafflesMedical,CHAS Clinic,60 AIRPORT BOULEVARD 819643,1.35496948998212,103.989066655162
Viva Medical Group (Westside),CHAS Clinic,154 WEST COAST ROAD 127371,1.30369748988215,103.766131294904
W Medical,CHAS Clinic,365 SEMBAWANG CRESCENT 750365,1.44436832542469,103.816263881646
W P SIM FAMILY CLINIC & SURGERY,CHAS Clinic,153 SERANGOON NORTH AVE 1 550153,1.36995099695439,103.872312298307
W Y TEH FAMILY CLINIC AND SURGERY,CHAS Clinic,462 TAMPINES STREET 44 520462,1.35901318154697,103.955111125692
W. H. YAK FAMILY CLINIC,CHAS Clinic,25 NEW UPPER CHANGI RD 462025,1.32325013385157,103.933835585522
WAN Medical Clinic,CHAS Clinic,416 BEDOK NORTH AVENUE 2 460416,1.32840382792706,103.930684870619
WEE'S FAMILY CLINIC & SURGERY,CHAS Clinic,88 WHAMPOA DR 320088,1.32324727008732,103.855171553982
WELL FAMILY CLINIC & SURGERY,CHAS Clinic,555 ANG MO KIO AVENUE 10 560555,1.37119666410327,103.857024005426
WEN & WENG FAMILY CLINIC,CHAS Clinic,505 CANBERRA LINK 750505,1.45026201893127,103.822534715116
WEST COAST CLINIC & SURGERY (CLEMENTI WEST) PTE LTD,CHAS Clinic,722 CLEMENTI WEST ST 2 120722,1.30291359278879,103.76375957814
WHAMPOA CLINIC,CHAS Clinic,88 WHAMPOA DR 320088,1.32324727008732,103.855171553982
WHITECOAT MEDICAL,CHAS Clinic,201 HENDERSON ROAD 159545,1.2823935104936,103.820411646878
WINSTEDT CLINIC,CHAS Clinic,51 UPPER WELD ROAD 207408,1.30621809763649,103.853340215432
WL&H Medical,CHAS Clinic,1 SCOTTS ROAD 228208,1.30611334615777,103.831970581405
WONG CLINIC & SURGERY,CHAS Clinic,153 SERANGOON NORTH AVE 1 550153,1.36995099695439,103.872312298307
WONG CLINIC AND SURGERY,CHAS Clinic,416 ANG MO KIO AVE 10 560416,1.36454170930926,103.855103690664
WONG FAMILY CLINIC & SURGERY PTE LTD,CHAS Clinic,117 BEDOK RESERVOIR RD 470117,1.33141324887407,103.908688936297
WOODLANDS CLINIC,CHAS Clinic,131 MARSILING RISE 730131,1.43847983984994,103.778613439736
WOODLANDS FAMILY CLINIC,CHAS Clinic,305 WOODLANDS ST 31 730305,1.43036145793777,103.774102413755
WOODLANDS MEDICAL CENTRE,CHAS Clinic,210 MARSILING CRESCENT 730210,1.44620708777433,103.773680352853
WU CLINIC & SURGERY,CHAS Clinic,249 JURONG EAST ST 24 600249,1.34256242271947,103.739259690046
Waheeda's Clinic & Surgery,CHAS Clinic,16 KERBAU ROAD 219155,1.30696523402683,103.851567478911
Wee HealthFirst Medical Clinic,CHAS Clinic,378 CLEMENTI AVENUE 5 120378,1.31741204143962,103.7674169862
Wee's Clinic & Surgery Pte. Ltd.,CHAS Clinic,418 BEDOK NORTH AVENUE 2 460418,1.32856421162809,103.930036524412
Well Medical Clinic & Surgery,CHAS Clinic,739 Pasir Ris Drive 10 510739,1.37850572553651,103.936796194489
WellCare Family Clinic,CHAS Clinic,747 YISHUN STREET 72 760747,1.42822554362834,103.833488111412
Winsome Medical & Dental Center,CHAS Clinic,81 Whampoa Dr 320081,1.32400427512258,103.856326403138
Wong Clinic,CHAS Clinic,539 Bedok North Street 3 460539,1.33131386611754,103.925307290309
Woodgrove Medical,CHAS Clinic,30 WOODLANDS AVENUE 1 739065,1.42919468078964,103.781136877578
Y M CHAN CLINIC & SURGERY,CHAS Clinic,406 TAMPINES ST 41 520406,1.35782898267512,103.945792875721
Y T LIM CLINIC,CHAS Clinic,201B TAMPINES ST 21 522201,1.35345315773106,103.953009919289
YANG & CHIN MEDICAL & DENTAL ASSOCIATES YANG ING SHYONG MEDICAL & AESTHETIC CLINIC,CHAS Clinic,139 TAMPINES ST 11 521139,1.3461607395066,103.944509227628
YANG & YAP CLINIC AND SURGERY (PTE LTD) / DR YANG ING HONG MEDICAL AND AESTHETIC CLINIC,CHAS Clinic,537 BEDOK NORTH ST 3 460537,1.33177300798251,103.924236461317
YAP FAMILY CLINIC,CHAS Clinic,132 MARSILING RISE 730132,1.43828189844375,103.77802575812
YAP MEDICARE CLINIC & SURGERY,CHAS Clinic,8 EMPRESS RD 260008,1.31641190070436,103.805373812286
YAP WEE SEE RESPIRATORY AND SLEEP CLINIC,CHAS Clinic,38 IRRAWADDY ROAD 329563,1.32214005414322,103.844212383776
YEO CLINIC,CHAS Clinic,134 BT BATOK WEST AVE 6 650134,1.3515908698424,103.74450960652
YEO'S Clinic,CHAS Clinic,354 Clementi Avenue 2 120354,1.31351386363529,103.770861088487
YIM CLINIC,CHAS Clinic,11A BOON TIONG ROAD 161011,1.2863657812581,103.828789865619
YIM MEDICAL CENTRE (ADMIRALTY MRT),CHAS Clinic,678 WOODLANDS AVE 6 730678,1.43998366603242,103.801293104547
YISHUN RING ROAD CLINIC,CHAS Clinic,236 YISHUN RING ROAD 760236,1.43416807953309,103.83899894357
YISHUNONE FAMILY CLINIC,CHAS Clinic,743 YISHUN AVENUE 5 760743,1.4298998339656,103.833671016582
YONG CLINIC & SURGERY,CHAS Clinic,632 YISHUN ST 61 760632,1.41856736772689,103.839186936926
YOONG FAMILY CLINIC & SURGERY,CHAS Clinic,333 TAMPINES ST 32 520333,1.35335719500359,103.961129743645
YSL ALJUNIED CLINIC & SURGERY,CHAS Clinic,5 UPPER ALJUNIED LANE 360005,1.33372866023576,103.879898474189
YSL BEDOK CLINIC & SURGERY,CHAS Clinic,539 BEDOK NORTH STREET 3 460539,1.33131386611754,103.925307290309
Yarra Medical Clinic,CHAS Clinic,1 WEST COAST DRIVE 128020,1.31641321897956,103.757451263607
Yio Chu Kang MRT Clinic Pte Ltd,CHAS Clinic,635 Ang Mo Kio Ave 6 560635,1.38076896102348,103.842378423283
ZENITH MEDICAL CLINIC,CHAS Clinic,266C PUNGGOL WAY 823266,1.40515419804686,103.897805221313
Zam Family Clinic,CHAS Clinic,516 CHOA CHU KANG STREET 51 680516,1.39095082434027,103.743525075344
banyan clinic @ jw,CHAS Clinic,502 JURONG WEST AVENUE 1 640502,1.3505012764805,103.718334683532
i.Medical & i.Aesthetics,CHAS Clinic,1 NORTHPOINT DRIVE 768019,1.42790289016825,103.836177650724
iCare Medical and Wellness Clinic,CHAS Clinic,22 HAVELOCK ROAD 160022,1.28874603715013,103.828824191963
Changi Simei CC,Community Centre,10 Simei Street 2 529915,1.34493553057398,103.955110948119
Punggol CC,Community Centre,3 Hougang Avenue 6 538808,1.3743788214828,103.891815328408
Woodlands Galaxy CC,Community Centre,31 Woodlands Avenue 6 738991,1.43904160690114,103.802610984283
Yew Tee CC,Community Centre,20 Choa Chu Kang Street 52 689286,1.39491758447052,103.744727853367
Yio Chu Kang CC,Community Centre,50 Ang Mo Kio Street 61 569163,1.38151727157775,103.841428124035
Cairnhill CC,Community Centre,1 Anthony Road 229944,1.3104343381511,103.838864880096
Fengshan CC (Till 3Q 2021),Community Centre,187B Bedok North Street 4 462187,1.33049879236922,103.939995692517
Thomson CC (Till 1Q 2022),Community Centre,233 Bishan Street 22 570233,1.35858841571498,103.845522522015
Fernvale CC (U/C),Community Centre,21 Sengkang West Avenue 797650,1.39172205415033,103.877039060027
Bidadari CC (U/C),Community Centre,11 Bidadari Park Drive 367803,1.33873065408448,103.871670015649
Tengah CC (U/C),Community Centre,119 Plantation Crescent 690119,1.35675241769837,103.734500050293
Yuhua CC,Community Centre,90 Boon Lay Way 609958,1.33997285278881,103.737065915264
Zhenghua CC,Community Centre,1 Segar Road 677738,1.3868068291971,103.771520846382
Leng Kee CC,Community Centre,400 Lengkok Bahru 159049,1.28978711891653,103.81444834816
imPAct@Hong Lim Green,Community Centre,20 Upper Pickering Street 58284,1.28632940482837,103.846479315186
Sembawang CC,Community Centre,2125 Sembawang Road 758528,1.4516815276281,103.828783247126
Gek Poh Ville CC,Community Centre,1 Jurong West Street 74 649149,1.34868981937877,103.698726261357
Geylang Serai CC,Community Centre,1 Engku Aman Turn 408528,1.3164501683615,103.89659695323
Geylang West CC,Community Centre,1205 Upper Boon Keng Road 387311,1.3156911078441,103.872387855134
Henderson CC,Community Centre,500 Bukit Merah View 159682,1.28601015660462,103.823315322074
Hillview CC,Community Centre,1 Hillview Rise 667970,1.36196724402422,103.764266389757
Hong Kah North CC,Community Centre,30 Bukit Batok Street 31 659440,1.35905888839505,103.749456841487
Hougang CC,Community Centre,35 Hougang Avenue 3 538840,1.36475743233025,103.892622240184
Hwi Yoh CC,Community Centre,535 Serangoon North Avenue 4 550535,1.37360010030912,103.873890977742
Jalan Besar CC,Community Centre,69 Jellicoe Road 208737,1.30800417111748,103.861786572317
Joo Chiat CC,Community Centre,405 Joo Chiat Road 427633,1.30745720639376,103.904168869493
Jurong Green CC,Community Centre,6 Jurong West Avenue 1 649520,1.35055603170356,103.725341556777
Jurong Spring CC (U/C),Community Centre,8 Jurong West Street 52 649296,1.34833016917296,103.718155703267
Kallang CC,Community Centre,45 Boon Keng Road 339771,1.31780290497647,103.862373282501
Kampong Chai Chee CC,Community Centre,11 Bedok North Street 1 469662,1.32698498848449,103.931620621577
Kampong Glam CC,Community Centre,385 Beach Road 199581,1.30279521839327,103.863597858268
Kampong Kembangan CC,Community Centre,5 Lengkong Tiga 417408,1.32315519886988,103.912698650056
Kampong Ubi CC,Community Centre,10 Jalan Ubi 409075,1.31784643130184,103.900750126977
Cheng San CC,Community Centre,6 Ang Mo Kio Street 53 569205,1.37178044674321,103.849569976256
Chong Pang CC,Community Centre,21 Yishun Ring Road 768677,1.43083237048448,103.829234874916
Chua Chu Kang CC,Community Centre,35 Teck Whye Avenue 688892,1.38115529003064,103.751903886481
Ci Yuan CC,Community Centre,51 Hougang Avenue 9 538776,1.37514897825787,103.882894179307
Clementi CC,Community Centre,220 Clementi Avenue 4 129880,1.31881518814763,103.768153686645
Dover CC,Community Centre,1 Dover Road 130001,1.302529944662,103.783271666717
Eunos CC,Community Centre,180 Bedok Reservoir Road 479220,1.33255277788544,103.91514355252
Fengshan CC (U/C),Community Centre,20 Bedok North Street 2 469644,1.33070761805554,103.936613618799
Fuchun CC,Community Centre,1 Woodlands Street 31 738581,1.42952981919595,103.774811855067
Tampines Central CC,Community Centre,1 Tampines Walk 528523,1.35349615471813,103.939683594446
Tampines Changkat CC,Community Centre,13 Tampines Street 11 529453,1.3458133461735,103.947687834643
Tampines East CC,Community Centre,10 Tampines Street 23 529341,1.35335682593433,103.954620461629
Tampines North CC,Community Centre,2 Tampines Street 41 529204,1.35736478775974,103.946602685067
Tampines West CC,Community Centre,5 Tampines Avenue 3 529705,1.34875076398822,103.935633408895
Tanglin CC,Community Centre,245 Whitley Road 297829,1.32338446818001,103.826877183466
Tanjong Pagar CC,Community Centre,101 Cantonment Road 89774,1.27616698002633,103.841584210034
Teck Ghee CC,Community Centre,861 Ang Mo Kio Avenue 10 569734,1.36308867917974,103.853536076665
Telok Blangah CC,Community Centre,450 Telok Blangah Street 31 108943,1.27486265663736,103.807875435609
The Frontier CC,Community Centre,60 Jurong West Central 3 648346,1.34046956412475,103.704452685304
The Serangoon CC,Community Centre,10 Serangoon North Avenue 2 555877,1.37005486240283,103.873927617452
Thomson CC (U/C),Community Centre,194 Upper Thomson Road 574339,1.35125385335026,103.83626228639
Tiong Bahru CC,Community Centre,67A Eu Chin Street 169715,1.28345251714882,103.831882714575
Toa Payoh Central CC,Community Centre,93 Toa Payoh Central 319194,1.33493451709456,103.850204545922
Toa Payoh East CC,Community Centre,160 Lorong 6 Toa Payoh 319380,1.33627489206396,103.85470024903
Toa Payoh South CC,Community Centre,1999 Lorong 8 Toa Payoh 319258,1.33489037046643,103.859378979813
Toa Payoh West CC,Community Centre,200 Lorong 2 Toa Payoh 319642,1.3353827124599,103.844830875826
Ulu Pandan CC,Community Centre,170 Ghim Moh Road 279621,1.31200940949362,103.789211186001
West Coast CC,Community Centre,2 Clementi West Street 2 129605,1.30264555979077,103.764832077473
Whampoa CC,Community Centre,300 Whampoa Drive 327737,1.32463959408329,103.856979169641
Woodgrove CC,Community Centre,353 Woodlands Ave 1 730353,1.43177102177052,103.785006866148
Woodlands CC,Community Centre,1 Woodlands Street 81 738526,1.43973033862036,103.788235404817
Katong CC,Community Centre,51 Kampong Arang Road 438178,1.30059117423726,103.884748931358
Keat Hong CC,Community Centre,2 Choa Chu Kang Loop 689687,1.38406515926541,103.744923812722
Kebun Baru CC,Community Centre,216 Ang Mo Kio Avenue 4 569897,1.37300749906274,103.83761242449
Radin Mas CC,Community Centre,51 Telok Blangah Crescent 98917,1.27593101840053,103.819753130977
Rivervale CC,Community Centre,193 Rivervale Drive 540193,1.39362831366603,103.901775024974
Sengkang CC,Community Centre,2 Sengkang Square 545025,1.39278558587024,103.893906102774
Senja-Cashew CC,Community Centre,101 Bukit Panjang Road 679910,1.38158679008906,103.76465958417
Kim Seng CC,Community Centre,570 Havelock Road 169640,1.28968265976033,103.83070644581
Kolam Ayer CC,Community Centre,1 Geylang Bahru Lane 339631,1.32415431819917,103.869693090627
Kreta Ayer CC,Community Centre,28A Kreta Ayer Road 88995,1.28119257621546,103.843012853618
Jurong Spring CC (Till 1Q 2021),Community Centre,535 Jurong West Street 52 640535,1.34942130837618,103.717011848542
Kaki Bukit CC,Community Centre,670 Bedok North Street 3 469627,1.33338206967953,103.926846224656
Yishun Link CC,Community Centre,413 Yishun Ring Road 760413,1.42503566854712,103.846399217959
MacPherson CC,Community Centre,400 Paya Lebar Way 379131,1.3235370882948,103.884481193415
Marine Parade CC,Community Centre,278 Marine Parade Road 449282,1.30482859822658,103.9095452826
Marsiling CC,Community Centre,100 Admiralty Road 739980,1.44065677654285,103.773615184767
Mountbatten CC (Till further notice),Community Centre,14 Kampong Arang Road 431014,1.30017762817114,103.884043223042
Nanyang CC,Community Centre,60 Jurong West Street 91 649040,1.3423640283979,103.692320231917
Nee Soon Central CC,Community Centre,1 Northpoint Drive 768019,1.42803584532257,103.836092102185
Nee Soon East CC,Community Centre,1 Yishun Avenue 9 768893,1.43102087212489,103.838488083545
Nee Soon South CC,Community Centre,30 Yishun Street 81 768455,1.4151749664221,103.834693130803
Pasir Ris East CC,Community Centre,1 Pasir Ris Drive 4 519457,1.3685870294423,103.959198004761
Pasir Ris Elias CC,Community Centre,93 Pasir Ris Drive 3 519498,1.37842943699246,103.942476405496
Paya Lebar Kovan CC,Community Centre,207 Hougang Street 21 530207,1.35779860505296,103.886092082636
Pek Kio CC,Community Centre,21 Gloucester Road 219458,1.31305864843728,103.851373846882
Potong Pasir CC,Community Centre,6 Potong Pasir Avenue 2 358361,1.33253591154285,103.86703683934
Punggol 21 CC,Community Centre,80 Punggol Field 828815,1.39360624159956,103.913464113125
Buangkok CC (U/C),Community Centre,"70 Compassvale Bow, #01-25 544692",1.38343476250513,103.892190513977
Limbang Constituency Office,Community Centre,20 Choa Chu Kang Street 52 689286,1.39491758447052,103.744727853367
One Punggol CC (U/C),Community Centre,"1 Punggol Drive, #04-04 828629",1.40861759539368,103.90508784944
Rivervale CC (U/C),Community Centre,2 Rivervale Close 544583,1.38515276413574,103.902319507384
Punggol Park CC,Community Centre,458 Hougang Avenue 10 530458,1.37773444443111,103.896252886146
Punggol Vista CC,Community Centre,602 Punggol Central 820602,1.40328429076968,103.907288602075
Punggol West CC,Community Centre,259C Punggol Field 823259,1.40451590068484,103.89566486383
Queenstown CC,Community Centre,365 Commonwealth Avenue 149732,1.29915022797049,103.80130510766
Siglap CC,Community Centre,300 Bedok South Avenue 3 469299,1.32163185812187,103.9433365555
Siglap CC (U/C),Community Centre,151 Bedok South Road 460151,1.31729193602696,103.946742143134
Siglap South CC,Community Centre,6 Palm Road 456441,1.3131589522001,103.930623466344
Taman Jurong CC,Community Centre,1 Yung Sheng Road 618495,1.3353068008328,103.721626399564
ACE The Place CC,Community Centre,120 Woodlands Avenue 1 739069,1.42749277602918,103.792240772323
Aljunied CC,Community Centre,110 Hougang Avenue 1 530110,1.35465808310012,103.889546235205
Anchorvale CC,Community Centre,59 Anchorvale Road 544965,1.39712791773438,103.886665684716
Ang Mo Kio CC,Community Centre,795 Ang Mo Kio Avenue 1 569976,1.36683348076669,103.840668130336
Ayer Rajah CC,Community Centre,150 Pandan Gardens 609335,1.3207993044286,103.747540191939
Bedok CC,Community Centre,850 New Upper Changi Road 467352,1.32424659842593,103.936047838803
Bishan CC,Community Centre,51 Bishan Street 13 579799,1.34951161831951,103.850509275687
Marymount CC,Community Centre,191 Sin Ming Avenue 575738,1.36213756796576,103.8412861742
Boon Lay CC,Community Centre,10 Boon Lay Place 649882,1.34832322532679,103.711380186479
Braddell Heights CC,Community Centre,50 Serangoon Avenue 2 556129,1.35161224552733,103.8703678757
Bukit Batok CC,Community Centre,21 Bukit Batok Central 659959,1.35019080604781,103.747514398535
Bukit Batok East CC,Community Centre,23 Bukit Batok East Avenue 4 659841,1.34898738780681,103.758195830417
Bukit Merah CC,Community Centre,4000 Jalan Bukit Merah 159465,1.28525426592061,103.815828543116
Bukit Panjang CC,Community Centre,8 Pending Road 678295,1.37645074924612,103.77055880601
Bukit Timah CC,Community Centre,20 Toh Yi Drive 596569,1.34050085979547,103.771609614654
Buona Vista CC,Community Centre,36 Holland Drive 270036,1.30925871460611,103.792619417011
Canberra CC,Community Centre,2 Sembawang Crescent 757632,1.44504412683036,103.819473739147
The Pit,Gym,50 Tras Street 78989,1.27811388348071,103.844202079592
The Stable Mixed Martial Arts,Gym,100 Turf Club Road 287992,1.3342195983767,103.795898242377
Bishan ClubFITT Gym,Gym,5 Bishan St. 4 579783,1.35528262760188,103.850922071159
The Yoga Place,Gym,328 King George's Ave 208568,1.30992191079359,103.862090963732
Sky Fitness - Serangoon Gardens,Gym,45 Bughley Drive Blk B 559022,1.36000966368369,103.85957105374
Slender Shapes - Serangoon Gardens Way,Gym,85A Serangoon Gardens Way 555981,1.36389982541919,103.864884313373
Woodlands ClubFITT Gym,Gym,495 WoodlandsCentre 738597,1.43489537703518,103.780306573729
Yio Chu Kang ClubFITT Gym,Gym,200 Ang Mo Kio Ave 9 569770,1.38227243116352,103.845767858372
Yishun ClubFITT Gym,Gym,101 YishunAve 1 769130,1.41201836574556,103.83117739651
Zattva Yoga Studio,Gym,150 Orchard Road 238841,1.30125729612721,103.841150152248
Fitness First - One Raffles Quay,Gym,1 Raffles Quay 48583,1.28089478900143,103.851677105821
Fitness First - Paragon,Gym,41282  238859,1.30372322367268,103.835240311923
True Fitness - Great World City,Gym,1 Kim Seng Promenade 237994,1.29380236091495,103.831757911005
California Fitness - Bugis,Gym,230 Victoria Street 188024,1.30014248326867,103.855786976518
Fitness First - AMK Hub,Gym,53 Ang Mo Kio Ave 3 569933,1.36924890739398,103.848399235571
California Fitness - Velocity@Novena Square,Gym,3 Velocity @ Novena 307683,1.32021101601674,103.843656771807
Fitness First - Alexandra (Mapletree Business City),Gym,20 Pasir Panjang Road 117439,1.274827493389,103.799064826968
Evolve MMA - POMO Mall,Gym,1 Selegie Road 188306,1.3001084594134,103.849264282609
Fitness First - Captial Tower,Gym,  68912,1.27771181456553,103.847522674168
Yoga Connections,Gym,498 A Changi Road 419903,1.31923098288927,103.914005195669
California Fitness - Raffles,Gym,14 Raffles Place 48619,1.28348363887373,103.850574044319
True Fitness - Suntec City,Gym,3 Temasek Boulevard 38983,1.29487905112126,103.857675501543
Union Yoga Ayurveda (Kembangan Branch),Gym,14D Kingston Terrace 418935,1.31988383852338,103.912862460833
Union Yoga Ayurveda (Beauty World Branch),Gym, 51 Chun Tin Road 599625,1.34174220136525,103.772716769692
Rhythmic Yoga Works,Gym,575 Orchard Road 188091,1.29800183598617,103.856934794867
Neue,Gym, 1 Stadium place #02-07 397628,1.30384327849927,103.872750707738
Om Shiva Yoga - Chip Bee,Gym,45 Jalan Rumia 278000,1.31099316329402,103.797538795862
Om Shiva Yoga - Horse City,Gym,100 Turf Club Road 287992,1.3342195983767,103.795898242377
OMG Yoga,Gym,134 Jurong Gateway Road 600134,1.33386246359672,103.73870827223
Philip Wain,Gym,101 Thomson Road 307591,1.31733464253519,103.843463185078
Pure Fitness - Knightsbridge (Asia Square),Gym,8 Marina View 238857,1.30310526758961,103.836202014579
Krav Maga Singapore,Gym,39 North Canal Road 59295,1.28712786568231,103.84702569567
Fitness First - Tampines,Gym,1 Tampines Central 529508,1.35308485692255,103.943586936734
iPilates,Gym,8 Claymore Hill 229572,1.30763492632515,103.83203806691
California Fitness - Orchard- Ngee Ann City,Gym,8 Ngee Ann City 238873,1.30242417909429,103.83467613466
True Fitness - China Square Central,Gym,18 Cross Street 48423,1.28351522358922,103.846878913529
Sky Pilates,Gym,541 Orchard Road 238881,1.30508723301058,103.830722583997
Slender Shapes - Eunos,Gym,60 Kaki Bukit Place 415979,1.33407188854164,103.904054104624
Core Fitness Physiotherapy & Pilates Centre  - Forum The Shopping Mall,Gym,583 Orchard Road 238884,1.30619579913532,103.828509016301
CrossFit Fire City,Gym,11 Kampong Bugis 338988,1.30851817439858,103.866029977781
CrossFit Singapore,Gym,81 Ubi Avenue 4 408830,1.33354943541229,103.89176817408
Curves - Marine Parade,Gym,1 Marine Parade Central 160140,1.2781561439556,103.829524333744
Elements Pilates,Gym, Tanglin Road 247918,1.30527220041532,103.825078878265
Evolve MMA - Far East Square,Gym,26 China Street 49568,1.28305772642104,103.84782090171
Fitness First - Millenia Walk,Gym,9 Raffles Boulevard 39596,1.29296504773614,103.859343974188
Fitness First - One George Street,Gym,  49145,1.28554561731843,103.847771918338
Amore Fitness - Heartland Mall,Gym,205 Hougang Street 21 530205,1.35949663830553,103.885079928732
Amore Fitness - Plaza Singapura,Gym,68 Orchard Road 238839,1.30074756196423,103.845047628503
Amore Fitness - Thomson Plaza,Gym,301 Upper Thomson Road 574408,1.35466901882051,103.830919788426
Bikram Yoga,Gym,252 North Bridge Road 179103,1.2938935875293,103.853119912535
Bikram Yoga Harbourfront,Gym,  99253,1.26206336450486,103.818625588159
Brazilian Jiu Jitzu Singapore,Gym, Sophia Road 228149,1.30107054671992,103.84917626624
Pilates Bodyworks - Holland,Gym,36 Holland Drive 270036,1.30918211194726,103.79254748678
Tirisula Yoga,Gym,80 B Arab Street 199777,1.3014790011719,103.859188259636
Total Yoga - Clarke Quay,Gym,38 Carpenter Street 59917,1.28790271682791,103.84777293526
Fitness First - Marina Bay Financial Centre,Gym,12 Marina Boulevard 18982,1.27910567910157,103.854297425627
Midview Body & Mind,Gym,28 Sin Ming Lane 573972,1.35821656561939,103.833930717119
Pilates Inc - The Moving Body Group - Amoy Street,Gym,82 Amoy Street Level 1 69901,1.28078047914706,103.846733698071
The Jungle,Gym, 35B Boat Quay 49824,1.28625502575823,103.849673970079
TMP Fitness - Revenue House,Gym, 55 Newton Road 307987,1.31948959451122,103.841975314872
Amore Fitness - Bugis Junction,Gym,200 Victoria Street Bugis Junction 188021,1.29906799078836,103.855327954497
Bukit Gombak ClubFITT Gym,Gym,810 Bukit Batok West Ave 5 659081,1.35790704666032,103.7530237503
Choa Chu Kang ClubFITT Gym,Gym,1 Choa Chu Kang St 53 689236,1.39066617204386,103.747920712445
Clementi ClubFITT Gym,Gym,518 Clementi Ave 3 129907,1.31101498462879,103.764861415667
Hougang ClubFITT Gym,Gym,93 Hougang Ave 4 538832,1.37057348785749,103.88807173322
Jurong East ClubFITT Gym,Gym,21 Jurong East St. 31 609517,1.34621561227092,103.728835249034
Jurong West ClubFITT Gym,Gym,20 Jurong West St 93 648965,1.33841806492775,103.69376890219
Pasir Ris ClubFITT Gym,Gym,120 Pasir Ris Central 519640,1.37444845586245,103.95182250042
Physical ABuse,Gym,2 Havelock Road 2HR 59763,1.28672853496612,103.844901339347
Central Pilates,Gym,10 Winstedt Road 227977,1.30992450385743,103.841910545157
Gold's Gym - IBP Jurong East,Gym,2 International Business Park 609930,1.3296904778472,103.746960566285
Pure Fitness - Knightsbridge,Gym,3 Orchard Road 18960,1.27900797406852,103.851103466005
Updog Studio,Gym,902 B East Coast Parkway 449874,1.29747626957084,103.899774980097
Breathe Pilates - Novena,Gym,10 Sinaran Drive 307506,1.32042967863542,103.843892126913
Delta ClubFITT Gym,Gym,900 Tiong Bahru Road 158790,1.28907794925009,103.819773109932
Yogapoint Singapore,Gym, 3rd Floor 31B Kreta Ayer Road 88998,1.28065569131695,103.842160502746
Amore Fitness - Woodlands Civic Centre,Gym,900 South Woodlands Drive 730900,1.43507789397688,103.78661961568
Ananda Marga Yoga Society of Singapore - MacPherson,Gym,439 A MacPherson Road 368150,1.33201025602617,103.881024688613
Jal Yoga,Gym,991 Alexandra Road 119964,1.27441958484294,103.802911911187
One Wellness Fitness Club,Gym,164A New Bugis St 188440,1.30091799345463,103.855247873282
The Gym Nation,Gym,101 Bukit Panjang Road 679910,1.38158679370649,103.764659583272
The Yoga Shala,Gym,11 Yan Kit Road 88266,1.27652575407135,103.841918377905
Total Yoga - Orchard Road,Gym,8 Claymore Hill 229572,1.30763492632515,103.83203806691
True Fitness - Chevron House,Gym,30 Raffles Place 48622,1.28423792027966,103.851927274914
True Fitness - NTUC Income Tampines Junction,Gym,300 Tampines Avenue 5 529652,1.35429510351818,103.93963580414
True Fitness - Parkway Parade,Gym,80 Marine Parade Road 449269,1.30119131472187,103.905113590458
True Fitness - VivoCity,Gym,1 Harbourfront Walk 98585,1.26439468181096,103.821808629396
True Yoga - Ocean Financial Centre,Gym,10 Collyer Quay 49315,1.28298072623658,103.851838945741
True Yoga - Pacific Plaza,Gym,9 Scotts Road 228210,1.30653722380828,103.832126408154
Viva Fit Singapore - Beach Road,Gym,67 Beach Rd 189688,1.29695905771991,103.856304899664
Viva Fit Singapore - Raffles Place,Gym,20 Malacca Street 48979,1.28394229110606,103.850711622748
Viva Fit Singapore - Tanjong Pagar,Gym,1 Tanjong Pagar Plaza 82001,1.27559619819284,103.842393171371
WabiSabi Holistic Lifestyle,Gym,6 Eu Tong Sen St. The Central 59817,1.28886291929991,103.846556006065
Yaatra,Gym,114 A Neil Road 88852,1.27917902296384,103.841769864721
Fitness First - One Raffles Place,Gym,1 Raffles Place 48616,1.28433994842242,103.850982351781
Sengkang ClubFITT Gym,Gym,57 Anchorvale Road 544964,1.39550158789593,103.885784253769
Tampines ClubFITT Gym,Gym,505 Tampines Ave 5 529652,1.35429510351818,103.93963580414
Toa Payoh ClubFITT Gym,Gym,301 Toa Payoh Lor 6 319392,1.33060010108942,103.849986788241
Pilates Body Pilot - Biopolis,Gym,11 Biopolis Way 138667,1.30451127820755,103.791460023589
Pilates Bodyworks - Finlayson Green,Gym,1 Finlayson Green 49246,1.28224086928672,103.851286590696
Pilates Fitness,Gym,434 Telok Blangah Road 98854,1.27029599179716,103.81293029168
Pilates Flow,Gym,733 2nd Avenue Junction 269748,1.32982544868962,103.799469917652
Pilates Inc - The Moving Body Group - East Coast,Gym,46 East Coast Road 428766,1.30438467004432,103.903338648384
Platinum Yoga,Gym,1 Marine Parade Central 449408,1.30188733852456,103.905996039697
PowerMoves Pilates - Bishan Park,Gym, Bishan Park II 569931,1.36254434770061,103.84749323637
PowerMoves Pilates - Dempsey Hill,Gym,6 Dempsey Road 249683,1.30484978466339,103.808565893546
Pure Yoga - Chevron House,Gym,4 30 Raffles Place 48622,1.28423792027966,103.851927274914
Pure Yoga - Ngee Ann City,Gym,18 391A Orchard Road 238873,1.30242417909429,103.83467613466
Real Yoga,Gym,176 Orchard Road 238843,1.30197804716068,103.839758898411
Reebok CrossFit Enduro,Gym,11 Syed Alwi Road 207629,1.30681472605594,103.858169031632
Singapore CrossFit Hub,Gym,605 Blk B 368241,1.33378882726631,103.887714301749
Sivananda Yoga Vedanta Centre,Gym,21B Bukit Pasoh Rd 89835,1.27901545155803,103.840532034232
Sky Fitness - Harbourfront,Gym,3 HarbourFront Place 99254,1.26448635050271,103.818686870632
Bedok ClubFITT Gym,Gym,5 Bedok North St 2 469645,1.32585712140622,103.938328173262
Spaboutique,Gym,6 Nassim Road 258373,1.30778575196489,103.825932498525
The Gym At Orchard,Gym,4 Orchard Road 238882,1.30550611670641,103.829984827987
The Pilates Place,Gym,60 Tras Street 78999,1.27787296456741,103.844133723257
Fitness First - Fusionopolis,Gym,1 Fusionopolis Way 138632,1.29929406658312,103.787404060028
Amore Fitness - City Square Mall,Gym,180 Kitchener Road 208539,1.31139349438914,103.856487121487
E's FITNESS PTE. LTD.,Gym,51 Cantonment Road 89752,1.27870948631099,103.840386703019
YogaDivas - Nassim Road,Gym,6 Nassim Road 247974,1.29792400181845,103.814556916597
Absolute Yoga - River Valley,Gym,491 River Valley Rd 248371,1.29301786111442,103.826940812301
Yoga On Nassim,Gym,6 Nassim Road 269758,1.3310218845731,103.796264512395
YogaDivas - Leonie Hill,Gym, Leonie Hill Road 258373,1.30778575196489,103.825932498525
YogaDivas - Phoenix Park,Gym,308 Tanglin Road 247974,1.29792400181845,103.814556916597
Ananda Marga Yoga Society of Singapore - Parkway Centre,Gym,1 Marine Parade Central 449408,1.30188733852456,103.905996039697
Balancing Rocks Yoga Studio,Gym,287 Beach Road 199551,1.30097708408221,103.860481773329
Basic Essence,Gym,501 Bukit Timah Road 259760,1.32257317593847,103.814245545298
Being In Yoga,Gym,2 Turf Club Road 287988,1.33589728896884,103.795941517598
Breathe Pilates - East Coast,Gym,217 East Coast Road 428915,1.30759648523611,103.906933727641
Slender Shapes - Upper Bukit Timah,Gym,110M Upper Bukit Timah Road 588172,1.34094072442015,103.776280180624
Absolute Yoga - Telok Ayer,Gym,157A Telok Ayer Street 68611,1.28041369547153,103.847638181705
Pilatique Pilates Studio,Gym, Gemmil Lane 69250,1.2824640229959,103.846934447584
Canvass Art and Yoga Studio,Gym,5 A Binjai Park 589820,1.33583564516194,103.786616299314
COMO Shambhala Urban Escape,Gym,  238876,1.30717806036195,103.828468717265
Fitness First - The Cathay,Gym,2 Handy Road 229233,1.29918374721933,103.847789792828
Focus Pilates - Orchard,Gym,302 Orchard Road 238862,1.30394638048361,103.834826945699
Focus Pilates - Raffles Place,Gym,20 Malacca Street 48979,1.28394229110606,103.850711622748
Genesis Gym - CBD,Gym,78 Tras Street 79017,1.27742661017112,103.844050900534
Genesis Gym - Mounbatten,Gym,41306  398007,1.30746518712488,103.881270808537
Gold's Gym - Bukit Merah,Gym,3500 Bukit Merah Central 159837,1.28205540617869,103.818078216386
Green Yoga,Gym,232 A Upper Thomson Road 574363,1.35306949447786,103.835093523472
H.om Yoga,Gym,3 Canton Street 49745,1.28621325740623,103.849431927363
Impact Mixed Martial Arts,Gym,3 Shenton Way 68805,1.27851893758259,103.850071543607
Impakt Singapore,Gym,146 Robinson Road 68909,1.27816986401168,103.848096103439
Iyengar Yoga Centre Singapore - Goldhill Centre,Gym,1 Goldhill Plaza 308899,1.31782868295281,103.842889382967
Iyengar Yoga Centre Singapore - Neil Road Centre,Gym,146B Neil Road 88875,1.27828754868066,103.840648509607
Jagsport,Gym,340B King George's Ave 208574,1.31015179809918,103.862434227156
Kapap Singapore,Gym,22 Keong Siak Road 89129,1.28004625410654,103.841668651741
Kate Porter Yoga,Gym,5000 Marine Parade Road 449290,1.31004098717818,103.931988303014
Oasis Holistic,Gym,10 Selegie Road 180010,1.30370879489711,103.850537243387
OhmSantih Yoga,Gym,10A Haji Lane 189203,1.30050427305572,103.859384497354
Gold's Gym - Tanjong Pagar,Gym,86 A Tanjong Pagar Road 88507,1.27843513234261,103.843683536784
Masters' Yoga Sadhan,Gym,88A Tanjong Pagar Road 88509,1.27839696546876,103.843673722806
Fitness Factory -,Gym,41276  49870,1.2884814659674,103.849144620549
Active Life Center,Gym,545 Orchard Road 238882,1.30550611670641,103.829984827987
Amore Fitness - Jurong Point 2,Gym,63 Jurong West Central 3 648886,1.33983014805774,103.706460886826
Amore Fitness - Liang Court,Gym,177 River Valley Road 179030,1.29151478613339,103.844586298874
Amore Fitness - Tampines 1,Gym,10 Tampines Central 1 529536,1.35431556438278,103.94501945797
Sports SG Swimming Complex/Sports Hall/Gym Tampines Avenue 4,Swimming Complex/Sports Hall/Gym,Tampines Avenue 4,1.3530739380686312,103.94029190765623
Sports SG Swimming Complex/Sports Hall/Stadium/Tennis Centre/Gym Pasir Ris Central,Swimming Complex/Sports Hall/Stadium/Tennis Centre/Gym,Pasir Ris Central,1.3742806134607128,103.95187699073897
Sports SG Swimming Complex/Stadium Stirling Road,Swimming Complex/Stadium,Stirling Road,1.2961475133663551,103.80245826982248
Sports SG Swimming Complex/Sports Hall/Gym/Hockey Pitch Anchorvale Road,Swimming Complex/Sports Hall/Gym/Hockey Pitch,Anchorvale Road,1.3958790306118691,103.88667262791425
Sports SG Swimming Complex/ Stadium Yio Chu Kang Road,Swimming Complex/ Stadium,Yio Chu Kang Road,1.3563191827847099,103.87482408373886
Sports SG Swimming Complex/Sports Hall/Stadium/Gym Lorong 6 Toa Payoh,Swimming Complex/Sports Hall/Stadium/Gym,Lorong 6 Toa Payoh,1.330353526190689,103.85192844475472
Sports SG Swimming Complex/Sports Hall/Stadium/Gym Woodlands Street 12,Swimming Complex/Sports Hall/Stadium/Gym,Woodlands Street 12,1.434714992896097,103.78016272860899
Sports SG Field/Tennis Centre St Wilfred Road,Field/Tennis Centre,St Wilfred Road,1.3256528687721216,103.8615816053628
Sports SG Swimming Complex/Sports Hall/Stadium/Tennis Centre/Squash Centre/Gym Ang Mo Kio Avenue 9,Swimming Complex/Sports Hall/Stadium/Tennis Centre/Squash Centre/Gym,Ang Mo Kio Avenue 9,1.3826464401327203,103.84653849276384
Sports SG Sports Hall/Stadium/Gym Yishun Avenue 1,Sports Hall/Stadium/Gym,Yishun Avenue 1,1.4124404659329606,103.83204837313872
Sports SG Swimming Complex Yishun Avenue 3,Swimming Complex,Yishun Avenue 3,1.4236132815161078,103.834037914229
Sports SG Sports Hall/Stadium/Swimming Complex/Tennis Centre/Squash Centre/Hockey Pitch Evans Road,Sports Hall/Stadium/Swimming Complex/Tennis Centre/Squash Centre/Hockey Pitch,Evans Road,1.3195293794686642,103.81943824049836
Sports SG Swimming Complex/Sports Hall/Gym/Hockey Pitch Tiong Bahru Road,Swimming Complex/Sports Hall/Gym/Hockey Pitch,Tiong Bahru Road,1.2895254455072092,103.82040950412514
Sports SG Gym Lengkok Bahru,Gym,Lengkok Bahru,1.2868321702006722,103.81473572658817
Sports SG Swimming Complex Aljunied Crescent Avenue 1,Swimming Complex,Aljunied Crescent Avenue 1,1.3209979201685187,103.88805267638813
Sports SG Field Lorong 12 Geylang,Field,Lorong 12 Geylang,1.3103553774938594,103.87798073016205
Sports SG Field/Tennis Centre Rutland Road,Field/Tennis Centre,Rutland Road,1.310975453094105,103.84950190933503
Sports SG Swimming Complex/Stadium Tyrwhitt Road,Swimming Complex/Stadium,Tyrwhitt Road,1.3100467716941753,103.86026753515591
Sports SG Swimming Complex/Sports Hall/Stadium/Gym/Gateball & Petanque Courts Jurong East Street 31,Swimming Complex/Sports Hall/Stadium/Gym/Gateball & Petanque Courts,Jurong East Street 31,1.346683114876038,103.72939514571932
Sports SG Swimming Complex/Sports Hall/Tennis Centre/Gym Bedok North Street 1,Swimming Complex/Sports Hall/Tennis Centre/Gym,Bedok North Street 1,1.3269504939979333,103.93207011407813
Sports SG Swimming Complex/Sports Hall/Stadium/Gym Hougang Avenue 4,Swimming Complex/Sports Hall/Stadium/Gym,Hougang Avenue 4,1.3695934347573404,103.88695315316586
Sports SG Stadium West Coast Walk,Stadium,West Coast Walk,1.309710346343816,103.7629682565247
Sports SG Swimming Complex/Sports Hall/Gym Clementi Avenue 3,Swimming Complex/Sports Hall/Gym,Clementi Avenue 3,1.3104873520194005,103.76548164099063
Sports SG Swimming Complex/Sports Hall/Stadium/Tennis Centre/Gym Jurong West Street 93,Swimming Complex/Sports Hall/Stadium/Tennis Centre/Gym,Jurong West Street 93,1.3383086233111425,103.69444341063854
Sports SG Swimming Complex Geylang Bahru Lane,Swimming Complex,Geylang Bahru Lane,1.322649227192016,103.87242282305023
Sports SG Practice Track/Field/Tennis Centre/Squash Centre/Netball Centre/Lawn Bowl Stadium Road,Practice Track/Field/Tennis Centre/Squash Centre/Netball Centre/Lawn Bowl,Stadium Road,1.3057876351431132,103.8785489033804
Sports SG Swimming Complex Wilkinson Road,Swimming Complex,Wilkinson Road,1.3018541006509479,103.88610531773679
Sports SG Swimming Complex Ang Mo Kio Avenue 1,Swimming Complex,Ang Mo Kio Avenue 1,1.363146318655621,103.84968672271646
Sports SG Swimming Complex/Sports Hall/Stadium/Gym Bishan Street 14,Swimming Complex/Sports Hall/Stadium/Gym,Bishan Street 14,1.354593924901506,103.8509766148839
Sports SG Swimming Complex Bukit Batok Street 22,Swimming Complex,Bukit Batok Street 22,1.3445342246884908,103.74810664679934
Sports SG Sports Hall/Stadium/Gym Bukit Batok West Avenue 5,Sports Hall/Stadium/Gym,Bukit Batok West Avenue 5,1.3585876276845985,103.75299959972011
Sports SG Stadium Bedok North Street 2,Stadium,Bedok North Street 2,1.3261705912331496,103.93807628475322
Sports SG Squash Centre/Tennis Centre Burghley Drive,Squash Centre/Tennis Centre,Burghley Drive,1.3593021935230745,103.86054262923655
Sports SG Swimming Complex/Sports Hall/Stadium/Futsal Court/Tennis Centre/Gym Choa Chu Kang Street 53,Swimming Complex/Sports Hall/Stadium/Futsal Court/Tennis Centre/Gym,Choa Chu Kang Street 53,1.391030234612661,103.748633460196
Sports SG Stadium Fourth Chin Bee Road,Stadium,Fourth Chin Bee Road,1.3327974018869604,103.71937336830369
